{
 "type": "FeatureCollection",
 "fuente_url": "https://earthquake.usgs.gov/fdsnws/event/1/query?format=geojson&minlatitude=5&maxlatitude=12&minlongitude=-86&maxlongitude=-76&minmagnitude=3&starttime=2025-10-02T00:00:00Z&endtime=2026-10-07T04:32:33Z&orderby=time-asc",
 "fecha_extraccion": "2026-10-07T04:32:34Z",
 "licencia": "Public domain (US government). Credit: U.S. Geological Survey, Department of the Interior/USGS",
 "features": [
  {
   "type": "Feature",
   "properties": {
    "id": "us6000rerc",
    "magnitude": 4.5,
    "time": "2025-10-04T07:31:11Z",
    "updated": "2025-12-19T22:49:55Z",
    "longitude": -82.7069,
    "latitude": 6.2706,
    "depth": 10,
    "place": "195 km S of Burica, Panama",
    "status": "reviewed",
    "url": "https://earthquake.usgs.gov/earthquakes/eventpage/us6000rerc"
   },
   "geometry": {
    "type": "Point",
    "coordinates": [
     -82.7069,
     6.2706,
     10
    ]
   }
  },
  {
   "type": "Feature",
   "properties": {
    "id": "us6000reun",
    "magnitude": 4.7,
    "time": "2025-10-04T21:08:45Z",
    "updated": "2025-12-19T22:50:00Z",
    "longitude": -84.9311,
    "latitude": 10.5436,
    "depth": 10,
    "place": "9 km NNE of Tilarán, Costa Rica",
    "status": "reviewed",
    "url": "https://earthquake.usgs.gov/earthquakes/eventpage/us6000reun"
   },
   "geometry": {
    "type": "Point",
    "coordinates": [
     -84.9311,
     10.5436,
     10
    ]
   }
  },
  {
   "type": "Feature",
   "properties": {
    "id": "us6000rev6",
    "magnitude": 4.5,
    "time": "2025-10-04T23:42:15Z",
    "updated": "2025-12-19T22:50:00Z",
    "longitude": -78.0484,
    "latitude": 7.3775,
    "depth": 10,
    "place": "20 km SE of Jaqué, Panama",
    "status": "reviewed",
    "url": "https://earthquake.usgs.gov/earthquakes/eventpage/us6000rev6"
   },
   "geometry": {
    "type": "Point",
    "coordinates": [
     -78.0484,
     7.3775,
     10
    ]
   }
  },
  {
   "type": "Feature",
   "properties": {
    "id": "us6000rlw5",
    "magnitude": 4,
    "time": "2025-10-16T04:17:55Z",
    "updated": "2026-01-09T15:38:45Z",
    "longitude": -78.8977,
    "latitude": 7.9186,
    "depth": 10,
    "place": "38 km S of La Esmeralda, Panama",
    "status": "reviewed",
    "url": "https://earthquake.usgs.gov/earthquakes/eventpage/us6000rlw5"
   },
   "geometry": {
    "type": "Point",
    "coordinates": [
     -78.8977,
     7.9186,
     10
    ]
   }
  },
  {
   "type": "Feature",
   "properties": {
    "id": "us6000ril5",
    "magnitude": 5.9,
    "time": "2025-10-22T03:57:05Z",
    "updated": "2026-06-10T03:17:03Z",
    "longitude": -84.2408,
    "latitude": 9.2522,
    "depth": 20,
    "place": "21 km SSW of Quepos, Costa Rica",
    "status": "reviewed",
    "url": "https://earthquake.usgs.gov/earthquakes/eventpage/us6000ril5"
   },
   "geometry": {
    "type": "Point",
    "coordinates": [
     -84.2408,
     9.2522,
     20
    ]
   }
  },
  {
   "type": "Feature",
   "properties": {
    "id": "us6000rit2",
    "magnitude": 4.3,
    "time": "2025-10-23T03:43:03Z",
    "updated": "2026-01-15T22:46:48Z",
    "longitude": -83.7868,
    "latitude": 9.1369,
    "depth": 50.232,
    "place": "25 km SSW of Daniel Flores, Costa Rica",
    "status": "reviewed",
    "url": "https://earthquake.usgs.gov/earthquakes/eventpage/us6000rit2"
   },
   "geometry": {
    "type": "Point",
    "coordinates": [
     -83.7868,
     9.1369,
     50.232
    ]
   }
  },
  {
   "type": "Feature",
   "properties": {
    "id": "us6000rjhp",
    "magnitude": 4.3,
    "time": "2025-10-25T23:45:13Z",
    "updated": "2026-01-15T22:46:53Z",
    "longitude": -82.9689,
    "latitude": 8.898,
    "depth": 10,
    "place": "8 km N of San Vito, Costa Rica",
    "status": "reviewed",
    "url": "https://earthquake.usgs.gov/earthquakes/eventpage/us6000rjhp"
   },
   "geometry": {
    "type": "Point",
    "coordinates": [
     -82.9689,
     8.898,
     10
    ]
   }
  },
  {
   "type": "Feature",
   "properties": {
    "id": "us6000rkhp",
    "magnitude": 4.4,
    "time": "2025-10-31T00:58:20Z",
    "updated": "2026-01-27T17:59:02Z",
    "longitude": -77.8018,
    "latitude": 9.8844,
    "depth": 10,
    "place": "75 km NNE of San Ignacio de Tupile, Panama",
    "status": "reviewed",
    "url": "https://earthquake.usgs.gov/earthquakes/eventpage/us6000rkhp"
   },
   "geometry": {
    "type": "Point",
    "coordinates": [
     -77.8018,
     9.8844,
     10
    ]
   }
  },
  {
   "type": "Feature",
   "properties": {
    "id": "us6000rkke",
    "magnitude": 4.8,
    "time": "2025-10-31T13:04:26Z",
    "updated": "2026-01-27T17:59:03Z",
    "longitude": -82.283,
    "latitude": 7.1025,
    "depth": 10,
    "place": "121 km SSE of Burica, Panama",
    "status": "reviewed",
    "url": "https://earthquake.usgs.gov/earthquakes/eventpage/us6000rkke"
   },
   "geometry": {
    "type": "Point",
    "coordinates": [
     -82.283,
     7.1025,
     10
    ]
   }
  },
  {
   "type": "Feature",
   "properties": {
    "id": "us6000rm84",
    "magnitude": 4.6,
    "time": "2025-11-08T04:31:33Z",
    "updated": "2026-01-29T22:05:27Z",
    "longitude": -82.2567,
    "latitude": 7.6856,
    "depth": 10,
    "place": "59 km S of Boca Chica, Panama",
    "status": "reviewed",
    "url": "https://earthquake.usgs.gov/earthquakes/eventpage/us6000rm84"
   },
   "geometry": {
    "type": "Point",
    "coordinates": [
     -82.2567,
     7.6856,
     10
    ]
   }
  },
  {
   "type": "Feature",
   "properties": {
    "id": "us6000rn37",
    "magnitude": 4.5,
    "time": "2025-11-13T08:33:18Z",
    "updated": "2026-02-10T15:55:08Z",
    "longitude": -82.7848,
    "latitude": 8.3505,
    "depth": 13.425,
    "place": "2 km ENE of Manaca Norte, Panama",
    "status": "reviewed",
    "url": "https://earthquake.usgs.gov/earthquakes/eventpage/us6000rn37"
   },
   "geometry": {
    "type": "Point",
    "coordinates": [
     -82.7848,
     8.3505,
     13.425
    ]
   }
  },
  {
   "type": "Feature",
   "properties": {
    "id": "us6000rnks",
    "magnitude": 4.5,
    "time": "2025-11-16T11:51:59Z",
    "updated": "2026-02-10T15:55:11Z",
    "longitude": -83.1982,
    "latitude": 8.9516,
    "depth": 62.114,
    "place": "28 km SSE of Buenos Aires, Costa Rica",
    "status": "reviewed",
    "url": "https://earthquake.usgs.gov/earthquakes/eventpage/us6000rnks"
   },
   "geometry": {
    "type": "Point",
    "coordinates": [
     -83.1982,
     8.9516,
     62.114
    ]
   }
  },
  {
   "type": "Feature",
   "properties": {
    "id": "us6000rntr",
    "magnitude": 4.7,
    "time": "2025-11-17T18:30:23Z",
    "updated": "2026-02-10T15:55:12Z",
    "longitude": -83.9276,
    "latitude": 9.0054,
    "depth": 25.007,
    "place": "44 km W of Puerto Cortés, Costa Rica",
    "status": "reviewed",
    "url": "https://earthquake.usgs.gov/earthquakes/eventpage/us6000rntr"
   },
   "geometry": {
    "type": "Point",
    "coordinates": [
     -83.9276,
     9.0054,
     25.007
    ]
   }
  },
  {
   "type": "Feature",
   "properties": {
    "id": "us6000rp1a",
    "magnitude": 5.5,
    "time": "2025-11-18T22:36:33Z",
    "updated": "2026-02-10T15:55:14Z",
    "longitude": -84.0117,
    "latitude": 8.8279,
    "depth": 10,
    "place": "55 km WSW of Puerto Cortés, Costa Rica",
    "status": "reviewed",
    "url": "https://earthquake.usgs.gov/earthquakes/eventpage/us6000rp1a"
   },
   "geometry": {
    "type": "Point",
    "coordinates": [
     -84.0117,
     8.8279,
     10
    ]
   }
  },
  {
   "type": "Feature",
   "properties": {
    "id": "us6000rpa1",
    "magnitude": 4.4,
    "time": "2025-11-20T03:49:11Z",
    "updated": "2026-02-20T16:07:31Z",
    "longitude": -82.9581,
    "latitude": 8.9149,
    "depth": 10,
    "place": "10 km N of San Vito, Costa Rica",
    "status": "reviewed",
    "url": "https://earthquake.usgs.gov/earthquakes/eventpage/us6000rpa1"
   },
   "geometry": {
    "type": "Point",
    "coordinates": [
     -82.9581,
     8.9149,
     10
    ]
   }
  },
  {
   "type": "Feature",
   "properties": {
    "id": "us6000rph1",
    "magnitude": 4.4,
    "time": "2025-11-20T23:48:21Z",
    "updated": "2026-02-20T16:07:32Z",
    "longitude": -84.0748,
    "latitude": 8.8913,
    "depth": 10.148,
    "place": "60 km S of Quepos, Costa Rica",
    "status": "reviewed",
    "url": "https://earthquake.usgs.gov/earthquakes/eventpage/us6000rph1"
   },
   "geometry": {
    "type": "Point",
    "coordinates": [
     -84.0748,
     8.8913,
     10.148
    ]
   }
  },
  {
   "type": "Feature",
   "properties": {
    "id": "us6000rppd",
    "magnitude": 4.5,
    "time": "2025-11-21T19:47:06Z",
    "updated": "2026-02-20T16:07:33Z",
    "longitude": -84.1423,
    "latitude": 9.2728,
    "depth": 45.043,
    "place": "17 km S of Quepos, Costa Rica",
    "status": "reviewed",
    "url": "https://earthquake.usgs.gov/earthquakes/eventpage/us6000rppd"
   },
   "geometry": {
    "type": "Point",
    "coordinates": [
     -84.1423,
     9.2728,
     45.043
    ]
   }
  },
  {
   "type": "Feature",
   "properties": {
    "id": "us6000rptb",
    "magnitude": 4.5,
    "time": "2025-11-22T10:29:01Z",
    "updated": "2026-02-20T16:07:33Z",
    "longitude": -85.1706,
    "latitude": 11.0286,
    "depth": 218.702,
    "place": "9 km NNW of San José, Costa Rica",
    "status": "reviewed",
    "url": "https://earthquake.usgs.gov/earthquakes/eventpage/us6000rptb"
   },
   "geometry": {
    "type": "Point",
    "coordinates": [
     -85.1706,
     11.0286,
     218.702
    ]
   }
  },
  {
   "type": "Feature",
   "properties": {
    "id": "us6000rpvb",
    "magnitude": 5.1,
    "time": "2025-11-22T18:41:20Z",
    "updated": "2026-02-20T16:07:34Z",
    "longitude": -84.0883,
    "latitude": 8.8416,
    "depth": 10.998,
    "place": "63 km WSW of Puerto Cortés, Costa Rica",
    "status": "reviewed",
    "url": "https://earthquake.usgs.gov/earthquakes/eventpage/us6000rpvb"
   },
   "geometry": {
    "type": "Point",
    "coordinates": [
     -84.0883,
     8.8416,
     10.998
    ]
   }
  },
  {
   "type": "Feature",
   "properties": {
    "id": "us7000rdlf",
    "magnitude": 4.3,
    "time": "2025-11-25T02:48:57Z",
    "updated": "2026-02-20T16:07:41Z",
    "longitude": -84.0746,
    "latitude": 8.8225,
    "depth": 10,
    "place": "62 km WSW of Puerto Cortés, Costa Rica",
    "status": "reviewed",
    "url": "https://earthquake.usgs.gov/earthquakes/eventpage/us7000rdlf"
   },
   "geometry": {
    "type": "Point",
    "coordinates": [
     -84.0746,
     8.8225,
     10
    ]
   }
  },
  {
   "type": "Feature",
   "properties": {
    "id": "us6000rvpv",
    "magnitude": 4.3,
    "time": "2025-12-01T04:05:54Z",
    "updated": "2026-02-25T16:18:40Z",
    "longitude": -77.569,
    "latitude": 5.9851,
    "depth": 10,
    "place": "32 km SW of Bahía Solano, Colombia",
    "status": "reviewed",
    "url": "https://earthquake.usgs.gov/earthquakes/eventpage/us6000rvpv"
   },
   "geometry": {
    "type": "Point",
    "coordinates": [
     -77.569,
     5.9851,
     10
    ]
   }
  },
  {
   "type": "Feature",
   "properties": {
    "id": "us6000rs4v",
    "magnitude": 4.3,
    "time": "2025-12-03T04:44:52Z",
    "updated": "2026-03-04T18:41:45Z",
    "longitude": -82.3157,
    "latitude": 7.2306,
    "depth": 10,
    "place": "107 km SE of Burica, Panama",
    "status": "reviewed",
    "url": "https://earthquake.usgs.gov/earthquakes/eventpage/us6000rs4v"
   },
   "geometry": {
    "type": "Point",
    "coordinates": [
     -82.3157,
     7.2306,
     10
    ]
   }
  },
  {
   "type": "Feature",
   "properties": {
    "id": "us6000rt5m",
    "magnitude": 4.4,
    "time": "2025-12-07T14:20:43Z",
    "updated": "2026-03-04T18:42:54Z",
    "longitude": -83.937,
    "latitude": 8.8276,
    "depth": 10,
    "place": "47 km WSW of Puerto Cortés, Costa Rica",
    "status": "reviewed",
    "url": "https://earthquake.usgs.gov/earthquakes/eventpage/us6000rt5m"
   },
   "geometry": {
    "type": "Point",
    "coordinates": [
     -83.937,
     8.8276,
     10
    ]
   }
  },
  {
   "type": "Feature",
   "properties": {
    "id": "us6000rvkl",
    "magnitude": 5.6,
    "time": "2025-12-17T23:07:46Z",
    "updated": "2026-03-19T13:56:01Z",
    "longitude": -82.5956,
    "latitude": 6.7182,
    "depth": 10,
    "place": "148 km SSE of Burica, Panama",
    "status": "reviewed",
    "url": "https://earthquake.usgs.gov/earthquakes/eventpage/us6000rvkl"
   },
   "geometry": {
    "type": "Point",
    "coordinates": [
     -82.5956,
     6.7182,
     10
    ]
   }
  },
  {
   "type": "Feature",
   "properties": {
    "id": "us7000rpmb",
    "magnitude": 4.1,
    "time": "2025-12-20T12:43:51Z",
    "updated": "2026-03-19T13:56:07Z",
    "longitude": -83.5964,
    "latitude": 8.7445,
    "depth": 36.54,
    "place": "25 km SSW of Puerto Cortés, Costa Rica",
    "status": "reviewed",
    "url": "https://earthquake.usgs.gov/earthquakes/eventpage/us7000rpmb"
   },
   "geometry": {
    "type": "Point",
    "coordinates": [
     -83.5964,
     8.7445,
     36.54
    ]
   }
  },
  {
   "type": "Feature",
   "properties": {
    "id": "us7000rp5t",
    "magnitude": 4.5,
    "time": "2026-01-12T12:31:25Z",
    "updated": "2026-04-10T15:20:46Z",
    "longitude": -84.0943,
    "latitude": 8.8834,
    "depth": 10,
    "place": "60 km S of Quepos, Costa Rica",
    "status": "reviewed",
    "url": "https://earthquake.usgs.gov/earthquakes/eventpage/us7000rp5t"
   },
   "geometry": {
    "type": "Point",
    "coordinates": [
     -84.0943,
     8.8834,
     10
    ]
   }
  },
  {
   "type": "Feature",
   "properties": {
    "id": "us7000rqtv",
    "magnitude": 4,
    "time": "2026-01-19T23:06:55Z",
    "updated": "2026-04-18T14:47:30Z",
    "longitude": -84.1028,
    "latitude": 9.9502,
    "depth": 10,
    "place": "2 km WSW of Colima, Costa Rica",
    "status": "reviewed",
    "url": "https://earthquake.usgs.gov/earthquakes/eventpage/us7000rqtv"
   },
   "geometry": {
    "type": "Point",
    "coordinates": [
     -84.1028,
     9.9502,
     10
    ]
   }
  },
  {
   "type": "Feature",
   "properties": {
    "id": "us6000s9zf",
    "magnitude": 4.5,
    "time": "2026-02-02T01:01:15Z",
    "updated": "2026-04-23T20:43:25Z",
    "longitude": -83.3963,
    "latitude": 8.9167,
    "depth": 10,
    "place": "14 km ESE of Puerto Cortés, Costa Rica",
    "status": "reviewed",
    "url": "https://earthquake.usgs.gov/earthquakes/eventpage/us6000s9zf"
   },
   "geometry": {
    "type": "Point",
    "coordinates": [
     -83.3963,
     8.9167,
     10
    ]
   }
  },
  {
   "type": "Feature",
   "properties": {
    "id": "us6000sahe",
    "magnitude": 4.2,
    "time": "2026-02-07T15:01:17Z",
    "updated": "2026-05-01T14:35:53Z",
    "longitude": -83.1196,
    "latitude": 10.1175,
    "depth": 10,
    "place": "16 km NNW of Limón, Costa Rica",
    "status": "reviewed",
    "url": "https://earthquake.usgs.gov/earthquakes/eventpage/us6000sahe"
   },
   "geometry": {
    "type": "Point",
    "coordinates": [
     -83.1196,
     10.1175,
     10
    ]
   }
  },
  {
   "type": "Feature",
   "properties": {
    "id": "us6000s78x",
    "magnitude": 3.7,
    "time": "2026-02-08T08:27:14Z",
    "updated": "2026-05-01T14:35:45Z",
    "longitude": -84.1245,
    "latitude": 8.9429,
    "depth": 21.657,
    "place": "54 km S of Quepos, Costa Rica",
    "status": "reviewed",
    "url": "https://earthquake.usgs.gov/earthquakes/eventpage/us6000s78x"
   },
   "geometry": {
    "type": "Point",
    "coordinates": [
     -84.1245,
     8.9429,
     21.657
    ]
   }
  },
  {
   "type": "Feature",
   "properties": {
    "id": "us6000s7a5",
    "magnitude": 4.6,
    "time": "2026-02-08T15:41:04Z",
    "updated": "2026-05-01T14:35:46Z",
    "longitude": -82.3014,
    "latitude": 6.2648,
    "depth": 10,
    "place": "193 km SSW of Río Grande, Panama",
    "status": "reviewed",
    "url": "https://earthquake.usgs.gov/earthquakes/eventpage/us6000s7a5"
   },
   "geometry": {
    "type": "Point",
    "coordinates": [
     -82.3014,
     6.2648,
     10
    ]
   }
  },
  {
   "type": "Feature",
   "properties": {
    "id": "us6000s9y5",
    "magnitude": 4.6,
    "time": "2026-02-18T09:06:35Z",
    "updated": "2026-05-06T17:54:01Z",
    "longitude": -82.7634,
    "latitude": 9.6512,
    "depth": 10,
    "place": "13 km NNW of Barranco Adentro, Panama",
    "status": "reviewed",
    "url": "https://earthquake.usgs.gov/earthquakes/eventpage/us6000s9y5"
   },
   "geometry": {
    "type": "Point",
    "coordinates": [
     -82.7634,
     9.6512,
     10
    ]
   }
  },
  {
   "type": "Feature",
   "properties": {
    "id": "us7000s021",
    "magnitude": 4.8,
    "time": "2026-02-24T20:38:28Z",
    "updated": "2026-05-12T17:28:17Z",
    "longitude": -82.8039,
    "latitude": 8.4231,
    "depth": 10,
    "place": "2 km NW of La Esperanza, Panama",
    "status": "reviewed",
    "url": "https://earthquake.usgs.gov/earthquakes/eventpage/us7000s021"
   },
   "geometry": {
    "type": "Point",
    "coordinates": [
     -82.8039,
     8.4231,
     10
    ]
   }
  },
  {
   "type": "Feature",
   "properties": {
    "id": "us7000s132",
    "magnitude": 5,
    "time": "2026-02-28T17:11:55Z",
    "updated": "2026-05-15T22:02:33Z",
    "longitude": -81.832,
    "latitude": 9.4775,
    "depth": 10,
    "place": "33 km N of Kusapín, Panama",
    "status": "reviewed",
    "url": "https://earthquake.usgs.gov/earthquakes/eventpage/us7000s132"
   },
   "geometry": {
    "type": "Point",
    "coordinates": [
     -81.832,
     9.4775,
     10
    ]
   }
  },
  {
   "type": "Feature",
   "properties": {
    "id": "us7000s268",
    "magnitude": 5.2,
    "time": "2026-03-05T05:21:53Z",
    "updated": "2026-05-22T21:58:35Z",
    "longitude": -82.3532,
    "latitude": 7.13,
    "depth": 10,
    "place": "115 km SSE of Burica, Panama",
    "status": "reviewed",
    "url": "https://earthquake.usgs.gov/earthquakes/eventpage/us7000s268"
   },
   "geometry": {
    "type": "Point",
    "coordinates": [
     -82.3532,
     7.13,
     10
    ]
   }
  },
  {
   "type": "Feature",
   "properties": {
    "id": "us7000s2rp",
    "magnitude": 4.5,
    "time": "2026-03-07T11:10:23Z",
    "updated": "2026-05-22T21:58:38Z",
    "longitude": -85.966,
    "latitude": 10.3245,
    "depth": 10,
    "place": "13 km WNW of Tamarindo, Costa Rica",
    "status": "reviewed",
    "url": "https://earthquake.usgs.gov/earthquakes/eventpage/us7000s2rp"
   },
   "geometry": {
    "type": "Point",
    "coordinates": [
     -85.966,
     10.3245,
     10
    ]
   }
  },
  {
   "type": "Feature",
   "properties": {
    "id": "us7000s3n2",
    "magnitude": 4.8,
    "time": "2026-03-11T16:37:17Z",
    "updated": "2026-05-22T21:58:46Z",
    "longitude": -85.7055,
    "latitude": 11.5036,
    "depth": 200.394,
    "place": "4 km SSW of Moyogalpa, Nicaragua",
    "status": "reviewed",
    "url": "https://earthquake.usgs.gov/earthquakes/eventpage/us7000s3n2"
   },
   "geometry": {
    "type": "Point",
    "coordinates": [
     -85.7055,
     11.5036,
     200.394
    ]
   }
  },
  {
   "type": "Feature",
   "properties": {
    "id": "us6000sh19",
    "magnitude": 4.7,
    "time": "2026-03-17T20:25:26Z",
    "updated": "2026-05-26T19:17:03Z",
    "longitude": -83.103,
    "latitude": 8.4189,
    "depth": 10,
    "place": "20 km S of Golfito, Costa Rica",
    "status": "reviewed",
    "url": "https://earthquake.usgs.gov/earthquakes/eventpage/us6000sh19"
   },
   "geometry": {
    "type": "Point",
    "coordinates": [
     -83.103,
     8.4189,
     10
    ]
   }
  },
  {
   "type": "Feature",
   "properties": {
    "id": "us6000shdm",
    "magnitude": 5.4,
    "time": "2026-03-19T11:36:46Z",
    "updated": "2026-06-04T18:37:51Z",
    "longitude": -82.6186,
    "latitude": 5.1837,
    "depth": 10,
    "place": "south of Panama",
    "status": "reviewed",
    "url": "https://earthquake.usgs.gov/earthquakes/eventpage/us6000shdm"
   },
   "geometry": {
    "type": "Point",
    "coordinates": [
     -82.6186,
     5.1837,
     10
    ]
   }
  },
  {
   "type": "Feature",
   "properties": {
    "id": "us7000s9eh",
    "magnitude": 4.2,
    "time": "2026-03-22T15:15:11Z",
    "updated": "2026-06-04T18:38:11Z",
    "longitude": -76.285,
    "latitude": 5.4203,
    "depth": 104.871,
    "place": "14 km E of Bagadó, Colombia",
    "status": "reviewed",
    "url": "https://earthquake.usgs.gov/earthquakes/eventpage/us7000s9eh"
   },
   "geometry": {
    "type": "Point",
    "coordinates": [
     -76.285,
     5.4203,
     104.871
    ]
   }
  },
  {
   "type": "Feature",
   "properties": {
    "id": "us6000sm5q",
    "magnitude": 4.4,
    "time": "2026-04-02T17:11:25Z",
    "updated": "2026-06-20T17:05:09Z",
    "longitude": -83.0022,
    "latitude": 8.0971,
    "depth": 10,
    "place": "15 km W of Limones, Panama",
    "status": "reviewed",
    "url": "https://earthquake.usgs.gov/earthquakes/eventpage/us6000sm5q"
   },
   "geometry": {
    "type": "Point",
    "coordinates": [
     -83.0022,
     8.0971,
     10
    ]
   }
  },
  {
   "type": "Feature",
   "properties": {
    "id": "us6000sph9",
    "magnitude": 4.8,
    "time": "2026-04-12T11:50:18Z",
    "updated": "2026-06-24T16:34:33Z",
    "longitude": -78.6809,
    "latitude": 5.9384,
    "depth": 10,
    "place": "144 km WSW of Bahía Solano, Colombia",
    "status": "reviewed",
    "url": "https://earthquake.usgs.gov/earthquakes/eventpage/us6000sph9"
   },
   "geometry": {
    "type": "Point",
    "coordinates": [
     -78.6809,
     5.9384,
     10
    ]
   }
  },
  {
   "type": "Feature",
   "properties": {
    "id": "us6000sq97",
    "magnitude": 3.8,
    "time": "2026-04-15T15:55:01Z",
    "updated": "2026-06-24T16:34:39Z",
    "longitude": -84.0885,
    "latitude": 9.5588,
    "depth": 49.345,
    "place": "13 km SW of San Marcos, Costa Rica",
    "status": "reviewed",
    "url": "https://earthquake.usgs.gov/earthquakes/eventpage/us6000sq97"
   },
   "geometry": {
    "type": "Point",
    "coordinates": [
     -84.0885,
     9.5588,
     49.345
    ]
   }
  },
  {
   "type": "Feature",
   "properties": {
    "id": "us6000sqnn",
    "magnitude": 4,
    "time": "2026-04-16T23:17:29Z",
    "updated": "2026-07-03T01:37:57Z",
    "longitude": -83.0293,
    "latitude": 8.1782,
    "depth": 8.202,
    "place": "19 km WNW of Limones, Panama",
    "status": "reviewed",
    "url": "https://earthquake.usgs.gov/earthquakes/eventpage/us6000sqnn"
   },
   "geometry": {
    "type": "Point",
    "coordinates": [
     -83.0293,
     8.1782,
     8.202
    ]
   }
  },
  {
   "type": "Feature",
   "properties": {
    "id": "us7000sgh1",
    "magnitude": 4.4,
    "time": "2026-04-18T10:42:34Z",
    "updated": "2026-07-03T01:39:04Z",
    "longitude": -77.1509,
    "latitude": 10.1195,
    "depth": 10,
    "place": "137 km NE of Achutupo, Panama",
    "status": "reviewed",
    "url": "https://earthquake.usgs.gov/earthquakes/eventpage/us7000sgh1"
   },
   "geometry": {
    "type": "Point",
    "coordinates": [
     -77.1509,
     10.1195,
     10
    ]
   }
  },
  {
   "type": "Feature",
   "properties": {
    "id": "us6000sra9",
    "magnitude": 4.4,
    "time": "2026-04-19T08:55:44Z",
    "updated": "2026-07-03T01:38:16Z",
    "longitude": -83.1698,
    "latitude": 8.0655,
    "depth": 10,
    "place": "33 km W of Burica, Panama",
    "status": "reviewed",
    "url": "https://earthquake.usgs.gov/earthquakes/eventpage/us6000sra9"
   },
   "geometry": {
    "type": "Point",
    "coordinates": [
     -83.1698,
     8.0655,
     10
    ]
   }
  },
  {
   "type": "Feature",
   "properties": {
    "id": "us7000sglc",
    "magnitude": 5,
    "time": "2026-04-28T03:49:47Z",
    "updated": "2026-07-11T19:59:06Z",
    "longitude": -84.1985,
    "latitude": 9.8635,
    "depth": 70.8,
    "place": "2 km NNE of Palmichal, Costa Rica",
    "status": "reviewed",
    "url": "https://earthquake.usgs.gov/earthquakes/eventpage/us7000sglc"
   },
   "geometry": {
    "type": "Point",
    "coordinates": [
     -84.1985,
     9.8635,
     70.8
    ]
   }
  },
  {
   "type": "Feature",
   "properties": {
    "id": "us6000swxr",
    "magnitude": 4.5,
    "time": "2026-05-02T13:37:23Z",
    "updated": "2026-07-15T15:25:46Z",
    "longitude": -76.2871,
    "latitude": 5.2447,
    "depth": 104.42,
    "place": "23 km SE of Bagadó, Colombia",
    "status": "reviewed",
    "url": "https://earthquake.usgs.gov/earthquakes/eventpage/us6000swxr"
   },
   "geometry": {
    "type": "Point",
    "coordinates": [
     -76.2871,
     5.2447,
     104.42
    ]
   }
  },
  {
   "type": "Feature",
   "properties": {
    "id": "us6000svip",
    "magnitude": 4.1,
    "time": "2026-05-05T20:54:43Z",
    "updated": "2026-07-15T15:25:55Z",
    "longitude": -84.3477,
    "latitude": 9.2957,
    "depth": 10,
    "place": "25 km S of Parrita, Costa Rica",
    "status": "reviewed",
    "url": "https://earthquake.usgs.gov/earthquakes/eventpage/us6000svip"
   },
   "geometry": {
    "type": "Point",
    "coordinates": [
     -84.3477,
     9.2957,
     10
    ]
   }
  },
  {
   "type": "Feature",
   "properties": {
    "id": "us6000sw44",
    "magnitude": 4.8,
    "time": "2026-05-08T03:39:30Z",
    "updated": "2026-07-18T18:23:16Z",
    "longitude": -82.3611,
    "latitude": 6.6202,
    "depth": 10,
    "place": "166 km SSE of Burica, Panama",
    "status": "reviewed",
    "url": "https://earthquake.usgs.gov/earthquakes/eventpage/us6000sw44"
   },
   "geometry": {
    "type": "Point",
    "coordinates": [
     -82.3611,
     6.6202,
     10
    ]
   }
  },
  {
   "type": "Feature",
   "properties": {
    "id": "us6000swhx",
    "magnitude": 4.5,
    "time": "2026-05-09T20:26:10Z",
    "updated": "2026-07-18T18:23:18Z",
    "longitude": -82.5942,
    "latitude": 8.8156,
    "depth": 10,
    "place": "4 km SSW of Cerro Punta, Panama",
    "status": "reviewed",
    "url": "https://earthquake.usgs.gov/earthquakes/eventpage/us6000swhx"
   },
   "geometry": {
    "type": "Point",
    "coordinates": [
     -82.5942,
     8.8156,
     10
    ]
   }
  },
  {
   "type": "Feature",
   "properties": {
    "id": "us6000sxh5",
    "magnitude": 5,
    "time": "2026-05-13T16:22:30Z",
    "updated": "2026-08-24T08:04:27Z",
    "longitude": -84.4935,
    "latitude": 9.6751,
    "depth": 10,
    "place": "16 km ENE of Jacó, Costa Rica",
    "status": "reviewed",
    "url": "https://earthquake.usgs.gov/earthquakes/eventpage/us6000sxh5"
   },
   "geometry": {
    "type": "Point",
    "coordinates": [
     -84.4935,
     9.6751,
     10
    ]
   }
  },
  {
   "type": "Feature",
   "properties": {
    "id": "us6000sxne",
    "magnitude": 4.4,
    "time": "2026-05-14T03:36:57Z",
    "updated": "2026-07-25T22:12:47Z",
    "longitude": -84.5982,
    "latitude": 9.5901,
    "depth": 10,
    "place": "4 km SE of Jacó, Costa Rica",
    "status": "reviewed",
    "url": "https://earthquake.usgs.gov/earthquakes/eventpage/us6000sxne"
   },
   "geometry": {
    "type": "Point",
    "coordinates": [
     -84.5982,
     9.5901,
     10
    ]
   }
  },
  {
   "type": "Feature",
   "properties": {
    "id": "us6000sxlv",
    "magnitude": 3.2,
    "time": "2026-05-14T04:44:51Z",
    "updated": "2026-07-25T22:12:47Z",
    "longitude": -84.6545,
    "latitude": 9.5253,
    "depth": 10,
    "place": "10 km SSW of Jacó, Costa Rica",
    "status": "reviewed",
    "url": "https://earthquake.usgs.gov/earthquakes/eventpage/us6000sxlv"
   },
   "geometry": {
    "type": "Point",
    "coordinates": [
     -84.6545,
     9.5253,
     10
    ]
   }
  },
  {
   "type": "Feature",
   "properties": {
    "id": "us6000sy6z",
    "magnitude": 3.2,
    "time": "2026-05-16T10:47:56Z",
    "updated": "2026-07-25T22:12:49Z",
    "longitude": -84.6055,
    "latitude": 9.5822,
    "depth": 10,
    "place": "4 km SE of Jacó, Costa Rica",
    "status": "reviewed",
    "url": "https://earthquake.usgs.gov/earthquakes/eventpage/us6000sy6z"
   },
   "geometry": {
    "type": "Point",
    "coordinates": [
     -84.6055,
     9.5822,
     10
    ]
   }
  },
  {
   "type": "Feature",
   "properties": {
    "id": "us6000t076",
    "magnitude": 4.5,
    "time": "2026-05-19T02:23:33Z",
    "updated": "2026-07-25T22:12:58Z",
    "longitude": -82.9156,
    "latitude": 9.0311,
    "depth": 10,
    "place": "24 km NNE of San Vito, Costa Rica",
    "status": "reviewed",
    "url": "https://earthquake.usgs.gov/earthquakes/eventpage/us6000t076"
   },
   "geometry": {
    "type": "Point",
    "coordinates": [
     -82.9156,
     9.0311,
     10
    ]
   }
  },
  {
   "type": "Feature",
   "properties": {
    "id": "us6000szg7",
    "magnitude": 4.5,
    "time": "2026-05-22T09:19:59Z",
    "updated": "2026-08-05T15:58:48Z",
    "longitude": -83.54,
    "latitude": 8.7137,
    "depth": 15.126,
    "place": "27 km S of Puerto Cortés, Costa Rica",
    "status": "reviewed",
    "url": "https://earthquake.usgs.gov/earthquakes/eventpage/us6000szg7"
   },
   "geometry": {
    "type": "Point",
    "coordinates": [
     -83.54,
     8.7137,
     15.126
    ]
   }
  },
  {
   "type": "Feature",
   "properties": {
    "id": "us7000sql0",
    "magnitude": 4.3,
    "time": "2026-05-29T15:39:13Z",
    "updated": "2026-08-11T13:34:08Z",
    "longitude": -85.9086,
    "latitude": 11.6168,
    "depth": 10,
    "place": "12 km N of Belén, Nicaragua",
    "status": "reviewed",
    "url": "https://earthquake.usgs.gov/earthquakes/eventpage/us7000sql0"
   },
   "geometry": {
    "type": "Point",
    "coordinates": [
     -85.9086,
     11.6168,
     10
    ]
   }
  },
  {
   "type": "Feature",
   "properties": {
    "id": "us7000sq6f",
    "magnitude": 4.8,
    "time": "2026-06-03T00:41:41Z",
    "updated": "2026-08-11T13:34:06Z",
    "longitude": -80.677,
    "latitude": 7.5249,
    "depth": 10,
    "place": "11 km NNW of El Cortezo, Panama",
    "status": "reviewed",
    "url": "https://earthquake.usgs.gov/earthquakes/eventpage/us7000sq6f"
   },
   "geometry": {
    "type": "Point",
    "coordinates": [
     -80.677,
     7.5249,
     10
    ]
   }
  },
  {
   "type": "Feature",
   "properties": {
    "id": "us7000sqgj",
    "magnitude": 4.7,
    "time": "2026-06-04T01:55:12Z",
    "updated": "2026-08-15T17:26:59Z",
    "longitude": -83.7153,
    "latitude": 8.3919,
    "depth": 10,
    "place": "66 km SSW of Puerto Cortés, Costa Rica",
    "status": "reviewed",
    "url": "https://earthquake.usgs.gov/earthquakes/eventpage/us7000sqgj"
   },
   "geometry": {
    "type": "Point",
    "coordinates": [
     -83.7153,
     8.3919,
     10
    ]
   }
  },
  {
   "type": "Feature",
   "properties": {
    "id": "us7000stz6",
    "magnitude": 4.1,
    "time": "2026-06-09T16:06:30Z",
    "updated": "2026-08-15T17:27:15Z",
    "longitude": -85.5964,
    "latitude": 11.1965,
    "depth": 164.08,
    "place": "9 km W of Cárdenas, Nicaragua",
    "status": "reviewed",
    "url": "https://earthquake.usgs.gov/earthquakes/eventpage/us7000stz6"
   },
   "geometry": {
    "type": "Point",
    "coordinates": [
     -85.5964,
     11.1965,
     164.08
    ]
   }
  },
  {
   "type": "Feature",
   "properties": {
    "id": "us7000sry7",
    "magnitude": 4.9,
    "time": "2026-06-10T03:01:35Z",
    "updated": "2026-08-15T17:27:10Z",
    "longitude": -85.7014,
    "latitude": 10.5726,
    "depth": 67.747,
    "place": "8 km NW of Sardinal, Costa Rica",
    "status": "reviewed",
    "url": "https://earthquake.usgs.gov/earthquakes/eventpage/us7000sry7"
   },
   "geometry": {
    "type": "Point",
    "coordinates": [
     -85.7014,
     10.5726,
     67.747
    ]
   }
  },
  {
   "type": "Feature",
   "properties": {
    "id": "us6000t8sr",
    "magnitude": 4.4,
    "time": "2026-06-28T08:39:25Z",
    "updated": "2026-09-15T23:40:59Z",
    "longitude": -76.2727,
    "latitude": 5.1217,
    "depth": 96.893,
    "place": "25 km N of San José del Palmar, Colombia",
    "status": "reviewed",
    "url": "https://earthquake.usgs.gov/earthquakes/eventpage/us6000t8sr"
   },
   "geometry": {
    "type": "Point",
    "coordinates": [
     -76.2727,
     5.1217,
     96.893
    ]
   }
  },
  {
   "type": "Feature",
   "properties": {
    "id": "us6000t9f9",
    "magnitude": 4.4,
    "time": "2026-07-01T13:41:16Z",
    "updated": "2026-09-15T23:41:36Z",
    "longitude": -83.2596,
    "latitude": 8.7365,
    "depth": 27.196,
    "place": "21 km NW of Golfito, Costa Rica",
    "status": "reviewed",
    "url": "https://earthquake.usgs.gov/earthquakes/eventpage/us6000t9f9"
   },
   "geometry": {
    "type": "Point",
    "coordinates": [
     -83.2596,
     8.7365,
     27.196
    ]
   }
  },
  {
   "type": "Feature",
   "properties": {
    "id": "us6000t9sq",
    "magnitude": 4.1,
    "time": "2026-07-03T04:18:06Z",
    "updated": "2026-09-19T21:50:25Z",
    "longitude": -84.2802,
    "latitude": 9.7869,
    "depth": 61.605,
    "place": "4 km SSE of San Rafael Abajo, Costa Rica",
    "status": "reviewed",
    "url": "https://earthquake.usgs.gov/earthquakes/eventpage/us6000t9sq"
   },
   "geometry": {
    "type": "Point",
    "coordinates": [
     -84.2802,
     9.7869,
     61.605
    ]
   }
  },
  {
   "type": "Feature",
   "properties": {
    "id": "us6000tarc",
    "magnitude": 5.2,
    "time": "2026-07-07T18:11:30Z",
    "updated": "2026-09-19T21:50:30Z",
    "longitude": -84.7291,
    "latitude": 9.7551,
    "depth": 35,
    "place": "18 km NW of Jacó, Costa Rica",
    "status": "reviewed",
    "url": "https://earthquake.usgs.gov/earthquakes/eventpage/us6000tarc"
   },
   "geometry": {
    "type": "Point",
    "coordinates": [
     -84.7291,
     9.7551,
     35
    ]
   }
  },
  {
   "type": "Feature",
   "properties": {
    "id": "us7000t0xy",
    "magnitude": 4.5,
    "time": "2026-07-16T10:33:30Z",
    "updated": "2026-08-31T12:20:17Z",
    "longitude": -82.7325,
    "latitude": 8.6521,
    "depth": 10,
    "place": "3 km ENE of Santa Cruz, Panama",
    "status": "reviewed",
    "url": "https://earthquake.usgs.gov/earthquakes/eventpage/us7000t0xy"
   },
   "geometry": {
    "type": "Point",
    "coordinates": [
     -82.7325,
     8.6521,
     10
    ]
   }
  },
  {
   "type": "Feature",
   "properties": {
    "id": "us7000t3kq",
    "magnitude": 4.3,
    "time": "2026-07-27T02:20:41Z",
    "updated": "2026-08-14T02:55:45Z",
    "longitude": -82.4279,
    "latitude": 6.2315,
    "depth": 10,
    "place": "204 km SW of Río Grande, Panama",
    "status": "reviewed",
    "url": "https://earthquake.usgs.gov/earthquakes/eventpage/us7000t3kq"
   },
   "geometry": {
    "type": "Point",
    "coordinates": [
     -82.4279,
     6.2315,
     10
    ]
   }
  },
  {
   "type": "Feature",
   "properties": {
    "id": "us6000tgxl",
    "magnitude": 4.5,
    "time": "2026-07-27T16:50:06Z",
    "updated": "2026-08-09T21:21:18Z",
    "longitude": -82.5166,
    "latitude": 6.3585,
    "depth": 10,
    "place": "189 km SSE of Burica, Panama",
    "status": "reviewed",
    "url": "https://earthquake.usgs.gov/earthquakes/eventpage/us6000tgxl"
   },
   "geometry": {
    "type": "Point",
    "coordinates": [
     -82.5166,
     6.3585,
     10
    ]
   }
  },
  {
   "type": "Feature",
   "properties": {
    "id": "us6000thdg",
    "magnitude": 4.3,
    "time": "2026-08-01T02:16:27Z",
    "updated": "2026-09-03T21:17:38Z",
    "longitude": -83.8518,
    "latitude": 9.7421,
    "depth": 10,
    "place": "5 km S of Orosi, Costa Rica",
    "status": "reviewed",
    "url": "https://earthquake.usgs.gov/earthquakes/eventpage/us6000thdg"
   },
   "geometry": {
    "type": "Point",
    "coordinates": [
     -83.8518,
     9.7421,
     10
    ]
   }
  },
  {
   "type": "Feature",
   "properties": {
    "id": "us6000thkb",
    "magnitude": 4.3,
    "time": "2026-08-02T04:30:03Z",
    "updated": "2026-10-06T22:38:07Z",
    "longitude": -80.7275,
    "latitude": 7.5961,
    "depth": 12.485,
    "place": "8 km SW of Pitaloza Arriba, Panama",
    "status": "reviewed",
    "url": "https://earthquake.usgs.gov/earthquakes/eventpage/us6000thkb"
   },
   "geometry": {
    "type": "Point",
    "coordinates": [
     -80.7275,
     7.5961,
     12.485
    ]
   }
  },
  {
   "type": "Feature",
   "properties": {
    "id": "us6000thmh",
    "magnitude": 4.6,
    "time": "2026-08-02T16:09:30Z",
    "updated": "2026-08-22T16:39:20Z",
    "longitude": -85.9413,
    "latitude": 11.549,
    "depth": 135.313,
    "place": "7 km NW of Belén, Nicaragua",
    "status": "reviewed",
    "url": "https://earthquake.usgs.gov/earthquakes/eventpage/us6000thmh"
   },
   "geometry": {
    "type": "Point",
    "coordinates": [
     -85.9413,
     11.549,
     135.313
    ]
   }
  },
  {
   "type": "Feature",
   "properties": {
    "id": "us6000thmv",
    "magnitude": 4.4,
    "time": "2026-08-02T17:12:35Z",
    "updated": "2026-08-13T15:20:29Z",
    "longitude": -77.1911,
    "latitude": 7.6498,
    "depth": 34.424,
    "place": "24 km NNW of Riosucio, Colombia",
    "status": "reviewed",
    "url": "https://earthquake.usgs.gov/earthquakes/eventpage/us6000thmv"
   },
   "geometry": {
    "type": "Point",
    "coordinates": [
     -77.1911,
     7.6498,
     34.424
    ]
   }
  },
  {
   "type": "Feature",
   "properties": {
    "id": "us6000ti6z",
    "magnitude": 5.1,
    "time": "2026-08-05T04:19:21Z",
    "updated": "2026-08-22T01:29:50Z",
    "longitude": -82.5326,
    "latitude": 5.8844,
    "depth": 10,
    "place": "240 km S of Burica, Panama",
    "status": "reviewed",
    "url": "https://earthquake.usgs.gov/earthquakes/eventpage/us6000ti6z"
   },
   "geometry": {
    "type": "Point",
    "coordinates": [
     -82.5326,
     5.8844,
     10
    ]
   }
  },
  {
   "type": "Feature",
   "properties": {
    "id": "us6000tjsr",
    "magnitude": 4.9,
    "time": "2026-08-10T20:54:58Z",
    "updated": "2026-08-20T19:14:48Z",
    "longitude": -85.5543,
    "latitude": 8.4074,
    "depth": 10,
    "place": "163 km S of Sámara, Costa Rica",
    "status": "reviewed",
    "url": "https://earthquake.usgs.gov/earthquakes/eventpage/us6000tjsr"
   },
   "geometry": {
    "type": "Point",
    "coordinates": [
     -85.5543,
     8.4074,
     10
    ]
   }
  },
  {
   "type": "Feature",
   "properties": {
    "id": "us6000tluk",
    "magnitude": 4.3,
    "time": "2026-08-19T10:07:16Z",
    "updated": "2026-09-09T17:12:47Z",
    "longitude": -77.5719,
    "latitude": 5.8735,
    "depth": 10,
    "place": "37 km WNW of Nuquí, Colombia",
    "status": "reviewed",
    "url": "https://earthquake.usgs.gov/earthquakes/eventpage/us6000tluk"
   },
   "geometry": {
    "type": "Point",
    "coordinates": [
     -77.5719,
     5.8735,
     10
    ]
   }
  },
  {
   "type": "Feature",
   "properties": {
    "id": "us6000tn2j",
    "magnitude": 4.9,
    "time": "2026-08-24T07:37:16Z",
    "updated": "2026-09-28T14:48:23Z",
    "longitude": -83.9998,
    "latitude": 10.1662,
    "depth": 10,
    "place": "19 km NNE of San Rafael, Costa Rica",
    "status": "reviewed",
    "url": "https://earthquake.usgs.gov/earthquakes/eventpage/us6000tn2j"
   },
   "geometry": {
    "type": "Point",
    "coordinates": [
     -83.9998,
     10.1662,
     10
    ]
   }
  },
  {
   "type": "Feature",
   "properties": {
    "id": "us7000tcmy",
    "magnitude": 4.2,
    "time": "2026-08-24T07:39:39Z",
    "updated": "2026-09-17T19:47:03Z",
    "longitude": -83.9122,
    "latitude": 10.1032,
    "depth": 10,
    "place": "18 km SW of Guápiles, Costa Rica",
    "status": "reviewed",
    "url": "https://earthquake.usgs.gov/earthquakes/eventpage/us7000tcmy"
   },
   "geometry": {
    "type": "Point",
    "coordinates": [
     -83.9122,
     10.1032,
     10
    ]
   }
  },
  {
   "type": "Feature",
   "properties": {
    "id": "us7000tci6",
    "magnitude": 4.3,
    "time": "2026-08-28T06:46:33Z",
    "updated": "2026-09-24T05:36:41Z",
    "longitude": -78.4009,
    "latitude": 10.0063,
    "depth": 35,
    "place": "65 km NNE of Narganá, Panama",
    "status": "reviewed",
    "url": "https://earthquake.usgs.gov/earthquakes/eventpage/us7000tci6"
   },
   "geometry": {
    "type": "Point",
    "coordinates": [
     -78.4009,
     10.0063,
     35
    ]
   }
  },
  {
   "type": "Feature",
   "properties": {
    "id": "us7000tdbz",
    "magnitude": 3.6,
    "time": "2026-09-01T04:50:45Z",
    "updated": "2026-09-01T20:23:31Z",
    "longitude": -82.4204,
    "latitude": 8.6353,
    "depth": 10,
    "place": "4 km WSW of Caldera, Panama",
    "status": "reviewed",
    "url": "https://earthquake.usgs.gov/earthquakes/eventpage/us7000tdbz"
   },
   "geometry": {
    "type": "Point",
    "coordinates": [
     -82.4204,
     8.6353,
     10
    ]
   }
  },
  {
   "type": "Feature",
   "properties": {
    "id": "us7000tgdp",
    "magnitude": 4.2,
    "time": "2026-09-04T21:41:07Z",
    "updated": "2026-09-21T22:18:51Z",
    "longitude": -83.9351,
    "latitude": 10.147,
    "depth": 93.926,
    "place": "18 km WSW of Guápiles, Costa Rica",
    "status": "reviewed",
    "url": "https://earthquake.usgs.gov/earthquakes/eventpage/us7000tgdp"
   },
   "geometry": {
    "type": "Point",
    "coordinates": [
     -83.9351,
     10.147,
     93.926
    ]
   }
  },
  {
   "type": "Feature",
   "properties": {
    "id": "us7000tg98",
    "magnitude": 5,
    "time": "2026-09-10T08:26:53Z",
    "updated": "2026-09-20T06:44:04Z",
    "longitude": -84.0167,
    "latitude": 9.057,
    "depth": 10,
    "place": "44 km SSE of Quepos, Costa Rica",
    "status": "reviewed",
    "url": "https://earthquake.usgs.gov/earthquakes/eventpage/us7000tg98"
   },
   "geometry": {
    "type": "Point",
    "coordinates": [
     -84.0167,
     9.057,
     10
    ]
   }
  },
  {
   "type": "Feature",
   "properties": {
    "id": "us7000tget",
    "magnitude": 4.6,
    "time": "2026-09-10T18:04:04Z",
    "updated": "2026-09-23T21:51:50Z",
    "longitude": -84.1473,
    "latitude": 9.1718,
    "depth": 35,
    "place": "28 km S of Quepos, Costa Rica",
    "status": "reviewed",
    "url": "https://earthquake.usgs.gov/earthquakes/eventpage/us7000tget"
   },
   "geometry": {
    "type": "Point",
    "coordinates": [
     -84.1473,
     9.1718,
     35
    ]
   }
  },
  {
   "type": "Feature",
   "properties": {
    "id": "us7000tgw1",
    "magnitude": 4.7,
    "time": "2026-09-12T01:59:50Z",
    "updated": "2026-10-01T23:04:41Z",
    "longitude": -82.8155,
    "latitude": 8.329,
    "depth": 10,
    "place": "0 km NE of Manaca Civil, Panama",
    "status": "reviewed",
    "url": "https://earthquake.usgs.gov/earthquakes/eventpage/us7000tgw1"
   },
   "geometry": {
    "type": "Point",
    "coordinates": [
     -82.8155,
     8.329,
     10
    ]
   }
  },
  {
   "type": "Feature",
   "properties": {
    "id": "us7000thsp",
    "magnitude": 4.8,
    "time": "2026-09-16T07:02:13Z",
    "updated": "2026-09-16T07:28:25Z",
    "longitude": -77.8115,
    "latitude": 6.0969,
    "depth": 10,
    "place": "47 km WSW of Bahía Solano, Colombia",
    "status": "reviewed",
    "url": "https://earthquake.usgs.gov/earthquakes/eventpage/us7000thsp"
   },
   "geometry": {
    "type": "Point",
    "coordinates": [
     -77.8115,
     6.0969,
     10
    ]
   }
  },
  {
   "type": "Feature",
   "properties": {
    "id": "us7000ti8q",
    "magnitude": 4.4,
    "time": "2026-09-18T08:45:21Z",
    "updated": "2026-09-30T11:48:48Z",
    "longitude": -77.7982,
    "latitude": 7.0509,
    "depth": 10,
    "place": "7 km SW of Juradó, Colombia",
    "status": "reviewed",
    "url": "https://earthquake.usgs.gov/earthquakes/eventpage/us7000ti8q"
   },
   "geometry": {
    "type": "Point",
    "coordinates": [
     -77.7982,
     7.0509,
     10
    ]
   }
  },
  {
   "type": "Feature",
   "properties": {
    "id": "us7000tij9",
    "magnitude": 3.9,
    "time": "2026-09-18T22:09:36Z",
    "updated": "2026-09-22T14:13:37Z",
    "longitude": -82.9935,
    "latitude": 8.7413,
    "depth": 10,
    "place": "8 km W of Cañas Gordas, Panama",
    "status": "reviewed",
    "url": "https://earthquake.usgs.gov/earthquakes/eventpage/us7000tij9"
   },
   "geometry": {
    "type": "Point",
    "coordinates": [
     -82.9935,
     8.7413,
     10
    ]
   }
  },
  {
   "type": "Feature",
   "properties": {
    "id": "us6000tzj8",
    "magnitude": 5,
    "time": "2026-10-04T14:06:10Z",
    "updated": "2026-10-04T14:28:42Z",
    "longitude": -82.7171,
    "latitude": 5.3695,
    "depth": 10,
    "place": "295 km S of Burica, Panama",
    "status": "reviewed",
    "url": "https://earthquake.usgs.gov/earthquakes/eventpage/us6000tzj8"
   },
   "geometry": {
    "type": "Point",
    "coordinates": [
     -82.7171,
     5.3695,
     10
    ]
   }
  }
 ]
}
