{"type":"FeatureCollection","metadata":{"generated":1791347554000,"url":"https://earthquake.usgs.gov/fdsnws/event/1/query?format=geojson&minlatitude=5&maxlatitude=12&minlongitude=-86&maxlongitude=-76&minmagnitude=3&starttime=2025-10-02T00:00:00Z&endtime=2026-10-07T04:32:33Z&orderby=time-asc","title":"USGS Earthquakes","status":200,"api":"2.7.0","count":88},"features":[{"type":"Feature","properties":{"mag":4.5,"place":"195 km S of Burica, Panama","time":1759563071783,"updated":1766184595040,"tz":null,"url":"https://earthquake.usgs.gov/earthquakes/eventpage/us6000rerc","detail":"https://earthquake.usgs.gov/fdsnws/event/1/query?eventid=us6000rerc&format=geojson","felt":null,"cdi":null,"mmi":null,"alert":null,"status":"reviewed","tsunami":0,"sig":312,"net":"us","code":"6000rerc","ids":",us6000rerc,","sources":",us,","types":",origin,phase-data,","nst":38,"dmin":3.68,"rms":0.88,"gap":172,"magType":"mb","type":"earthquake","title":"M 4.5 - 195 km S of Burica, Panama"},"geometry":{"type":"Point","coordinates":[-82.7069,6.2706,10]},"id":"us6000rerc"},
{"type":"Feature","properties":{"mag":4.7,"place":"9 km NNE of Tilarán, Costa Rica","time":1759612125771,"updated":1766184600040,"tz":null,"url":"https://earthquake.usgs.gov/earthquakes/eventpage/us6000reun","detail":"https://earthquake.usgs.gov/fdsnws/event/1/query?eventid=us6000reun&format=geojson","felt":4,"cdi":4.7,"mmi":null,"alert":null,"status":"reviewed","tsunami":0,"sig":342,"net":"us","code":"6000reun","ids":",us6000reun,","sources":",us,","types":",dyfi,origin,phase-data,","nst":41,"dmin":0.252,"rms":0.77,"gap":82,"magType":"mb","type":"earthquake","title":"M 4.7 - 9 km NNE of Tilarán, Costa Rica"},"geometry":{"type":"Point","coordinates":[-84.9311,10.5436,10]},"id":"us6000reun"},
{"type":"Feature","properties":{"mag":4.5,"place":"20 km SE of Jaqué, Panama","time":1759621335420,"updated":1766184600040,"tz":null,"url":"https://earthquake.usgs.gov/earthquakes/eventpage/us6000rev6","detail":"https://earthquake.usgs.gov/fdsnws/event/1/query?eventid=us6000rev6&format=geojson","felt":null,"cdi":null,"mmi":null,"alert":null,"status":"reviewed","tsunami":0,"sig":312,"net":"us","code":"6000rev6","ids":",us6000rev6,","sources":",us,","types":",origin,phase-data,","nst":38,"dmin":2.509,"rms":1.04,"gap":104,"magType":"mb","type":"earthquake","title":"M 4.5 - 20 km SE of Jaqué, Panama"},"geometry":{"type":"Point","coordinates":[-78.0484,7.3775,10]},"id":"us6000rev6"},
{"type":"Feature","properties":{"mag":4,"place":"38 km S of La Esmeralda, Panama","time":1760588275494,"updated":1767973125040,"tz":null,"url":"https://earthquake.usgs.gov/earthquakes/eventpage/us6000rlw5","detail":"https://earthquake.usgs.gov/fdsnws/event/1/query?eventid=us6000rlw5&format=geojson","felt":null,"cdi":null,"mmi":null,"alert":null,"status":"reviewed","tsunami":0,"sig":246,"net":"us","code":"6000rlw5","ids":",us6000rlw5,","sources":",us,","types":",origin,phase-data,","nst":12,"dmin":1.549,"rms":0.72,"gap":160,"magType":"mb","type":"earthquake","title":"M 4.0 - 38 km S of La Esmeralda, Panama"},"geometry":{"type":"Point","coordinates":[-78.8977,7.9186,10]},"id":"us6000rlw5"},
{"type":"Feature","properties":{"mag":5.9,"place":"21 km SSW of Quepos, Costa Rica","time":1761105425548,"updated":1781061423877,"tz":null,"url":"https://earthquake.usgs.gov/earthquakes/eventpage/us6000ril5","detail":"https://earthquake.usgs.gov/fdsnws/event/1/query?eventid=us6000ril5&format=geojson","felt":216,"cdi":5.3,"mmi":5.523,"alert":"green","status":"reviewed","tsunami":0,"sig":650,"net":"us","code":"6000ril5","ids":",us6000ril5,usauto6000ril5,pt25295000,at00t4iln6,","sources":",us,usauto,pt,at,","types":",dyfi,ground-failure,impact-text,internal-moment-tensor,internal-origin,losspager,moment-tensor,origin,phase-data,shakemap,","nst":106,"dmin":0.539,"rms":1.36,"gap":123,"magType":"mww","type":"earthquake","title":"M 5.9 - 21 km SSW of Quepos, Costa Rica"},"geometry":{"type":"Point","coordinates":[-84.2408,9.2522,20]},"id":"us6000ril5"},
{"type":"Feature","properties":{"mag":4.3,"place":"25 km SSW of Daniel Flores, Costa Rica","time":1761190983371,"updated":1768517208040,"tz":null,"url":"https://earthquake.usgs.gov/earthquakes/eventpage/us6000rit2","detail":"https://earthquake.usgs.gov/fdsnws/event/1/query?eventid=us6000rit2&format=geojson","felt":27,"cdi":3.4,"mmi":null,"alert":null,"status":"reviewed","tsunami":0,"sig":294,"net":"us","code":"6000rit2","ids":",us6000rit2,","sources":",us,","types":",dyfi,origin,phase-data,","nst":36,"dmin":0.638,"rms":0.62,"gap":128,"magType":"mb","type":"earthquake","title":"M 4.3 - 25 km SSW of Daniel Flores, Costa Rica"},"geometry":{"type":"Point","coordinates":[-83.7868,9.1369,50.232]},"id":"us6000rit2"},
{"type":"Feature","properties":{"mag":4.3,"place":"8 km N of San Vito, Costa Rica","time":1761435913169,"updated":1768517213040,"tz":null,"url":"https://earthquake.usgs.gov/earthquakes/eventpage/us6000rjhp","detail":"https://earthquake.usgs.gov/fdsnws/event/1/query?eventid=us6000rjhp&format=geojson","felt":14,"cdi":4.6,"mmi":null,"alert":null,"status":"reviewed","tsunami":0,"sig":291,"net":"us","code":"6000rjhp","ids":",us6000rjhp,","sources":",us,","types":",dyfi,moment-tensor,origin,phase-data,","nst":42,"dmin":1.322,"rms":0.75,"gap":114,"magType":"mwr","type":"earthquake","title":"M 4.3 - 8 km N of San Vito, Costa Rica"},"geometry":{"type":"Point","coordinates":[-82.9689,8.898,10]},"id":"us6000rjhp"},
{"type":"Feature","properties":{"mag":4.4,"place":"75 km NNE of San Ignacio de Tupile, Panama","time":1761872300617,"updated":1769536742040,"tz":null,"url":"https://earthquake.usgs.gov/earthquakes/eventpage/us6000rkhp","detail":"https://earthquake.usgs.gov/fdsnws/event/1/query?eventid=us6000rkhp&format=geojson","felt":null,"cdi":null,"mmi":null,"alert":null,"status":"reviewed","tsunami":0,"sig":298,"net":"us","code":"6000rkhp","ids":",us6000rkhp,","sources":",us,","types":",origin,phase-data,","nst":20,"dmin":2.131,"rms":0.8,"gap":46,"magType":"mb","type":"earthquake","title":"M 4.4 - 75 km NNE of San Ignacio de Tupile, Panama"},"geometry":{"type":"Point","coordinates":[-77.8018,9.8844,10]},"id":"us6000rkhp"},
{"type":"Feature","properties":{"mag":4.8,"place":"121 km SSE of Burica, Panama","time":1761915866434,"updated":1769536743040,"tz":null,"url":"https://earthquake.usgs.gov/earthquakes/eventpage/us6000rkke","detail":"https://earthquake.usgs.gov/fdsnws/event/1/query?eventid=us6000rkke&format=geojson","felt":null,"cdi":null,"mmi":null,"alert":null,"status":"reviewed","tsunami":0,"sig":354,"net":"us","code":"6000rkke","ids":",us6000rkke,","sources":",us,","types":",origin,phase-data,","nst":83,"dmin":3.127,"rms":0.73,"gap":86,"magType":"mb","type":"earthquake","title":"M 4.8 - 121 km SSE of Burica, Panama"},"geometry":{"type":"Point","coordinates":[-82.283,7.1025,10]},"id":"us6000rkke"},
{"type":"Feature","properties":{"mag":4.6,"place":"59 km S of Boca Chica, Panama","time":1762576293612,"updated":1769724327040,"tz":null,"url":"https://earthquake.usgs.gov/earthquakes/eventpage/us6000rm84","detail":"https://earthquake.usgs.gov/fdsnws/event/1/query?eventid=us6000rm84&format=geojson","felt":null,"cdi":null,"mmi":null,"alert":null,"status":"reviewed","tsunami":0,"sig":326,"net":"us","code":"6000rm84","ids":",us6000rm84,","sources":",us,","types":",origin,phase-data,","nst":41,"dmin":2.676,"rms":0.79,"gap":248,"magType":"mb","type":"earthquake","title":"M 4.6 - 59 km S of Boca Chica, Panama"},"geometry":{"type":"Point","coordinates":[-82.2567,7.6856,10]},"id":"us6000rm84"},
{"type":"Feature","properties":{"mag":4.5,"place":"2 km ENE of Manaca Norte, Panama","time":1763022798756,"updated":1770738908040,"tz":null,"url":"https://earthquake.usgs.gov/earthquakes/eventpage/us6000rn37","detail":"https://earthquake.usgs.gov/fdsnws/event/1/query?eventid=us6000rn37&format=geojson","felt":1,"cdi":3.1,"mmi":null,"alert":null,"status":"reviewed","tsunami":0,"sig":312,"net":"us","code":"6000rn37","ids":",us6000rn37,","sources":",us,","types":",dyfi,origin,phase-data,","nst":39,"dmin":1.834,"rms":0.59,"gap":134,"magType":"mb","type":"earthquake","title":"M 4.5 - 2 km ENE of Manaca Norte, Panama"},"geometry":{"type":"Point","coordinates":[-82.7848,8.3505,13.425]},"id":"us6000rn37"},
{"type":"Feature","properties":{"mag":4.5,"place":"28 km SSE of Buenos Aires, Costa Rica","time":1763293919033,"updated":1770738911040,"tz":null,"url":"https://earthquake.usgs.gov/earthquakes/eventpage/us6000rnks","detail":"https://earthquake.usgs.gov/fdsnws/event/1/query?eventid=us6000rnks&format=geojson","felt":null,"cdi":null,"mmi":null,"alert":null,"status":"reviewed","tsunami":0,"sig":312,"net":"us","code":"6000rnks","ids":",us6000rnks,","sources":",us,","types":",origin,phase-data,","nst":58,"dmin":1.118,"rms":0.97,"gap":75,"magType":"mb","type":"earthquake","title":"M 4.5 - 28 km SSE of Buenos Aires, Costa Rica"},"geometry":{"type":"Point","coordinates":[-83.1982,8.9516,62.114]},"id":"us6000rnks"},
{"type":"Feature","properties":{"mag":4.7,"place":"44 km W of Puerto Cortés, Costa Rica","time":1763404223573,"updated":1770738912040,"tz":null,"url":"https://earthquake.usgs.gov/earthquakes/eventpage/us6000rntr","detail":"https://earthquake.usgs.gov/fdsnws/event/1/query?eventid=us6000rntr&format=geojson","felt":null,"cdi":null,"mmi":null,"alert":null,"status":"reviewed","tsunami":0,"sig":340,"net":"us","code":"6000rntr","ids":",us6000rntr,","sources":",us,","types":",origin,phase-data,","nst":56,"dmin":0.735,"rms":0.84,"gap":137,"magType":"mb","type":"earthquake","title":"M 4.7 - 44 km W of Puerto Cortés, Costa Rica"},"geometry":{"type":"Point","coordinates":[-83.9276,9.0054,25.007]},"id":"us6000rntr"},
{"type":"Feature","properties":{"mag":5.5,"place":"55 km WSW of Puerto Cortés, Costa Rica","time":1763505393063,"updated":1770738914040,"tz":null,"url":"https://earthquake.usgs.gov/earthquakes/eventpage/us6000rp1a","detail":"https://earthquake.usgs.gov/fdsnws/event/1/query?eventid=us6000rp1a&format=geojson","felt":7,"cdi":3.8,"mmi":5.143,"alert":"green","status":"reviewed","tsunami":0,"sig":468,"net":"us","code":"6000rp1a","ids":",us6000rp1a,usauto6000rp1a,","sources":",us,usauto,","types":",dyfi,internal-moment-tensor,losspager,moment-tensor,origin,phase-data,shakemap,","nst":96,"dmin":0.908,"rms":0.79,"gap":84,"magType":"mww","type":"earthquake","title":"M 5.5 - 55 km WSW of Puerto Cortés, Costa Rica"},"geometry":{"type":"Point","coordinates":[-84.0117,8.8279,10]},"id":"us6000rp1a"},
{"type":"Feature","properties":{"mag":4.4,"place":"10 km N of San Vito, Costa Rica","time":1763610551067,"updated":1771603651040,"tz":null,"url":"https://earthquake.usgs.gov/earthquakes/eventpage/us6000rpa1","detail":"https://earthquake.usgs.gov/fdsnws/event/1/query?eventid=us6000rpa1&format=geojson","felt":4,"cdi":4.1,"mmi":null,"alert":null,"status":"reviewed","tsunami":0,"sig":299,"net":"us","code":"6000rpa1","ids":",us6000rpa1,","sources":",us,","types":",dyfi,origin,phase-data,","nst":19,"dmin":1.32,"rms":0.92,"gap":209,"magType":"mb","type":"earthquake","title":"M 4.4 - 10 km N of San Vito, Costa Rica"},"geometry":{"type":"Point","coordinates":[-82.9581,8.9149,10]},"id":"us6000rpa1"},
{"type":"Feature","properties":{"mag":4.4,"place":"60 km S of Quepos, Costa Rica","time":1763682501404,"updated":1771603652040,"tz":null,"url":"https://earthquake.usgs.gov/earthquakes/eventpage/us6000rph1","detail":"https://earthquake.usgs.gov/fdsnws/event/1/query?eventid=us6000rph1&format=geojson","felt":null,"cdi":null,"mmi":null,"alert":null,"status":"reviewed","tsunami":0,"sig":298,"net":"us","code":"6000rph1","ids":",us6000rph1,","sources":",us,","types":",origin,phase-data,","nst":26,"dmin":0.847,"rms":1.14,"gap":129,"magType":"mb","type":"earthquake","title":"M 4.4 - 60 km S of Quepos, Costa Rica"},"geometry":{"type":"Point","coordinates":[-84.0748,8.8913,10.148]},"id":"us6000rph1"},
{"type":"Feature","properties":{"mag":4.5,"place":"17 km S of Quepos, Costa Rica","time":1763754426830,"updated":1771603653040,"tz":null,"url":"https://earthquake.usgs.gov/earthquakes/eventpage/us6000rppd","detail":"https://earthquake.usgs.gov/fdsnws/event/1/query?eventid=us6000rppd&format=geojson","felt":1,"cdi":3.8,"mmi":null,"alert":null,"status":"reviewed","tsunami":0,"sig":312,"net":"us","code":"6000rppd","ids":",us6000rppd,","sources":",us,","types":",dyfi,origin,phase-data,","nst":79,"dmin":0.485,"rms":0.58,"gap":133,"magType":"mb","type":"earthquake","title":"M 4.5 - 17 km S of Quepos, Costa Rica"},"geometry":{"type":"Point","coordinates":[-84.1423,9.2728,45.043]},"id":"us6000rppd"},
{"type":"Feature","properties":{"mag":4.5,"place":"9 km NNW of San José, Costa Rica","time":1763807341638,"updated":1771603653040,"tz":null,"url":"https://earthquake.usgs.gov/earthquakes/eventpage/us6000rptb","detail":"https://earthquake.usgs.gov/fdsnws/event/1/query?eventid=us6000rptb&format=geojson","felt":null,"cdi":null,"mmi":null,"alert":null,"status":"reviewed","tsunami":0,"sig":312,"net":"us","code":"6000rptb","ids":",us6000rptb,","sources":",us,","types":",origin,phase-data,","nst":33,"dmin":0.222,"rms":0.64,"gap":79,"magType":"mb","type":"earthquake","title":"M 4.5 - 9 km NNW of San José, Costa Rica"},"geometry":{"type":"Point","coordinates":[-85.1706,11.0286,218.702]},"id":"us6000rptb"},
{"type":"Feature","properties":{"mag":5.1,"place":"63 km WSW of Puerto Cortés, Costa Rica","time":1763836880057,"updated":1771603654040,"tz":null,"url":"https://earthquake.usgs.gov/earthquakes/eventpage/us6000rpvb","detail":"https://earthquake.usgs.gov/fdsnws/event/1/query?eventid=us6000rpvb&format=geojson","felt":3,"cdi":3.4,"mmi":null,"alert":null,"status":"reviewed","tsunami":0,"sig":401,"net":"us","code":"6000rpvb","ids":",us6000rpvb,usauto6000rpvb,","sources":",us,usauto,","types":",dyfi,internal-moment-tensor,moment-tensor,origin,phase-data,","nst":159,"dmin":0.898,"rms":0.65,"gap":108,"magType":"mww","type":"earthquake","title":"M 5.1 - 63 km WSW of Puerto Cortés, Costa Rica"},"geometry":{"type":"Point","coordinates":[-84.0883,8.8416,10.998]},"id":"us6000rpvb"},
{"type":"Feature","properties":{"mag":4.3,"place":"62 km WSW of Puerto Cortés, Costa Rica","time":1764038937992,"updated":1771603661040,"tz":null,"url":"https://earthquake.usgs.gov/earthquakes/eventpage/us7000rdlf","detail":"https://earthquake.usgs.gov/fdsnws/event/1/query?eventid=us7000rdlf&format=geojson","felt":null,"cdi":null,"mmi":null,"alert":null,"status":"reviewed","tsunami":0,"sig":284,"net":"us","code":"7000rdlf","ids":",us7000rdlf,","sources":",us,","types":",origin,phase-data,","nst":21,"dmin":0.916,"rms":0.44,"gap":145,"magType":"mb","type":"earthquake","title":"M 4.3 - 62 km WSW of Puerto Cortés, Costa Rica"},"geometry":{"type":"Point","coordinates":[-84.0746,8.8225,10]},"id":"us7000rdlf"},
{"type":"Feature","properties":{"mag":4.3,"place":"32 km SW of Bahía Solano, Colombia","time":1764561954383,"updated":1772036320040,"tz":null,"url":"https://earthquake.usgs.gov/earthquakes/eventpage/us6000rvpv","detail":"https://earthquake.usgs.gov/fdsnws/event/1/query?eventid=us6000rvpv&format=geojson","felt":null,"cdi":null,"mmi":null,"alert":null,"status":"reviewed","tsunami":0,"sig":284,"net":"us","code":"6000rvpv","ids":",us6000rvpv,","sources":",us,","types":",origin,phase-data,","nst":21,"dmin":3.426,"rms":1.3,"gap":126,"magType":"mb","type":"earthquake","title":"M 4.3 - 32 km SW of Bahía Solano, Colombia"},"geometry":{"type":"Point","coordinates":[-77.569,5.9851,10]},"id":"us6000rvpv"},
{"type":"Feature","properties":{"mag":4.3,"place":"107 km SE of Burica, Panama","time":1764737092285,"updated":1772649705040,"tz":null,"url":"https://earthquake.usgs.gov/earthquakes/eventpage/us6000rs4v","detail":"https://earthquake.usgs.gov/fdsnws/event/1/query?eventid=us6000rs4v&format=geojson","felt":null,"cdi":null,"mmi":null,"alert":null,"status":"reviewed","tsunami":0,"sig":284,"net":"us","code":"6000rs4v","ids":",us6000rs4v,","sources":",us,","types":",origin,phase-data,","nst":44,"dmin":3.003,"rms":0.87,"gap":144,"magType":"mb","type":"earthquake","title":"M 4.3 - 107 km SE of Burica, Panama"},"geometry":{"type":"Point","coordinates":[-82.3157,7.2306,10]},"id":"us6000rs4v"},
{"type":"Feature","properties":{"mag":4.4,"place":"47 km WSW of Puerto Cortés, Costa Rica","time":1765117243819,"updated":1772649774040,"tz":null,"url":"https://earthquake.usgs.gov/earthquakes/eventpage/us6000rt5m","detail":"https://earthquake.usgs.gov/fdsnws/event/1/query?eventid=us6000rt5m&format=geojson","felt":null,"cdi":null,"mmi":null,"alert":null,"status":"reviewed","tsunami":0,"sig":298,"net":"us","code":"6000rt5m","ids":",us6000rt5m,","sources":",us,","types":",origin,phase-data,","nst":26,"dmin":0.91,"rms":0.8,"gap":145,"magType":"mb","type":"earthquake","title":"M 4.4 - 47 km WSW of Puerto Cortés, Costa Rica"},"geometry":{"type":"Point","coordinates":[-83.937,8.8276,10]},"id":"us6000rt5m"},
{"type":"Feature","properties":{"mag":5.6,"place":"148 km SSE of Burica, Panama","time":1766012866062,"updated":1773928561040,"tz":null,"url":"https://earthquake.usgs.gov/earthquakes/eventpage/us6000rvkl","detail":"https://earthquake.usgs.gov/fdsnws/event/1/query?eventid=us6000rvkl&format=geojson","felt":2,"cdi":3.4,"mmi":3.769,"alert":"green","status":"reviewed","tsunami":0,"sig":483,"net":"us","code":"6000rvkl","ids":",us6000rvkl,usauto6000rvkl,pt25351000,","sources":",us,usauto,pt,","types":",dyfi,internal-moment-tensor,internal-origin,losspager,moment-tensor,origin,phase-data,shakemap,","nst":141,"dmin":3.312,"rms":0.69,"gap":32,"magType":"mww","type":"earthquake","title":"M 5.6 - 148 km SSE of Burica, Panama"},"geometry":{"type":"Point","coordinates":[-82.5956,6.7182,10]},"id":"us6000rvkl"},
{"type":"Feature","properties":{"mag":4.1,"place":"25 km SSW of Puerto Cortés, Costa Rica","time":1766234631342,"updated":1773928567040,"tz":null,"url":"https://earthquake.usgs.gov/earthquakes/eventpage/us7000rpmb","detail":"https://earthquake.usgs.gov/fdsnws/event/1/query?eventid=us7000rpmb&format=geojson","felt":null,"cdi":null,"mmi":null,"alert":null,"status":"reviewed","tsunami":0,"sig":259,"net":"us","code":"7000rpmb","ids":",us7000rpmb,","sources":",us,","types":",origin,phase-data,","nst":29,"dmin":1.07,"rms":0.75,"gap":159,"magType":"mb","type":"earthquake","title":"M 4.1 - 25 km SSW of Puerto Cortés, Costa Rica"},"geometry":{"type":"Point","coordinates":[-83.5964,8.7445,36.54]},"id":"us7000rpmb"},
{"type":"Feature","properties":{"mag":4.5,"place":"60 km S of Quepos, Costa Rica","time":1768221085872,"updated":1775834446040,"tz":null,"url":"https://earthquake.usgs.gov/earthquakes/eventpage/us7000rp5t","detail":"https://earthquake.usgs.gov/fdsnws/event/1/query?eventid=us7000rp5t&format=geojson","felt":null,"cdi":null,"mmi":null,"alert":null,"status":"reviewed","tsunami":0,"sig":312,"net":"us","code":"7000rp5t","ids":",us7000rp5t,","sources":",us,","types":",origin,phase-data,","nst":43,"dmin":0.857,"rms":1,"gap":145,"magType":"mb","type":"earthquake","title":"M 4.5 - 60 km S of Quepos, Costa Rica"},"geometry":{"type":"Point","coordinates":[-84.0943,8.8834,10]},"id":"us7000rp5t"},
{"type":"Feature","properties":{"mag":4,"place":"2 km WSW of Colima, Costa Rica","time":1768864015516,"updated":1776523650040,"tz":null,"url":"https://earthquake.usgs.gov/earthquakes/eventpage/us7000rqtv","detail":"https://earthquake.usgs.gov/fdsnws/event/1/query?eventid=us7000rqtv&format=geojson","felt":13,"cdi":4,"mmi":null,"alert":null,"status":"reviewed","tsunami":0,"sig":251,"net":"us","code":"7000rqtv","ids":",us7000rqtv,","sources":",us,","types":",dyfi,origin,phase-data,","nst":6,"dmin":0.052,"rms":0.15,"gap":136,"magType":"ml","type":"earthquake","title":"M 4.0 - 2 km WSW of Colima, Costa Rica"},"geometry":{"type":"Point","coordinates":[-84.1028,9.9502,10]},"id":"us7000rqtv"},
{"type":"Feature","properties":{"mag":4.5,"place":"14 km ESE of Puerto Cortés, Costa Rica","time":1769994075825,"updated":1776977005040,"tz":null,"url":"https://earthquake.usgs.gov/earthquakes/eventpage/us6000s9zf","detail":"https://earthquake.usgs.gov/fdsnws/event/1/query?eventid=us6000s9zf&format=geojson","felt":null,"cdi":null,"mmi":null,"alert":null,"status":"reviewed","tsunami":0,"sig":312,"net":"us","code":"6000s9zf","ids":",us6000s9zf,","sources":",us,","types":",origin,phase-data,","nst":33,"dmin":1.016,"rms":0.52,"gap":155,"magType":"mb","type":"earthquake","title":"M 4.5 - 14 km ESE of Puerto Cortés, Costa Rica"},"geometry":{"type":"Point","coordinates":[-83.3963,8.9167,10]},"id":"us6000s9zf"},
{"type":"Feature","properties":{"mag":4.2,"place":"16 km NNW of Limón, Costa Rica","time":1770476477349,"updated":1777646153040,"tz":null,"url":"https://earthquake.usgs.gov/earthquakes/eventpage/us6000sahe","detail":"https://earthquake.usgs.gov/fdsnws/event/1/query?eventid=us6000sahe&format=geojson","felt":null,"cdi":null,"mmi":null,"alert":null,"status":"reviewed","tsunami":0,"sig":271,"net":"us","code":"6000sahe","ids":",us6000sahe,","sources":",us,","types":",origin,phase-data,","nst":23,"dmin":0.949,"rms":0.77,"gap":140,"magType":"mb","type":"earthquake","title":"M 4.2 - 16 km NNW of Limón, Costa Rica"},"geometry":{"type":"Point","coordinates":[-83.1196,10.1175,10]},"id":"us6000sahe"},
{"type":"Feature","properties":{"mag":3.7,"place":"54 km S of Quepos, Costa Rica","time":1770539234627,"updated":1777646145040,"tz":null,"url":"https://earthquake.usgs.gov/earthquakes/eventpage/us6000s78x","detail":"https://earthquake.usgs.gov/fdsnws/event/1/query?eventid=us6000s78x&format=geojson","felt":null,"cdi":null,"mmi":null,"alert":null,"status":"reviewed","tsunami":0,"sig":211,"net":"us","code":"6000s78x","ids":",us6000s78x,","sources":",us,","types":",origin,phase-data,","nst":13,"dmin":0.802,"rms":0.98,"gap":155,"magType":"ml","type":"earthquake","title":"M 3.7 - 54 km S of Quepos, Costa Rica"},"geometry":{"type":"Point","coordinates":[-84.1245,8.9429,21.657]},"id":"us6000s78x"},
{"type":"Feature","properties":{"mag":4.6,"place":"193 km SSW of Río Grande, Panama","time":1770565264479,"updated":1777646146040,"tz":null,"url":"https://earthquake.usgs.gov/earthquakes/eventpage/us6000s7a5","detail":"https://earthquake.usgs.gov/fdsnws/event/1/query?eventid=us6000s7a5&format=geojson","felt":null,"cdi":null,"mmi":null,"alert":null,"status":"reviewed","tsunami":0,"sig":326,"net":"us","code":"6000s7a5","ids":",us6000s7a5,","sources":",us,","types":",origin,phase-data,","nst":29,"dmin":3.778,"rms":0.73,"gap":151,"magType":"mb","type":"earthquake","title":"M 4.6 - 193 km SSW of Río Grande, Panama"},"geometry":{"type":"Point","coordinates":[-82.3014,6.2648,10]},"id":"us6000s7a5"},
{"type":"Feature","properties":{"mag":4.6,"place":"13 km NNW of Barranco Adentro, Panama","time":1771405595971,"updated":1778090041040,"tz":null,"url":"https://earthquake.usgs.gov/earthquakes/eventpage/us6000s9y5","detail":"https://earthquake.usgs.gov/fdsnws/event/1/query?eventid=us6000s9y5&format=geojson","felt":18,"cdi":3.6,"mmi":null,"alert":null,"status":"reviewed","tsunami":0,"sig":332,"net":"us","code":"6000s9y5","ids":",us6000s9y5,","sources":",us,","types":",dyfi,origin,phase-data,","nst":78,"dmin":0.613,"rms":0.59,"gap":67,"magType":"mb","type":"earthquake","title":"M 4.6 - 13 km NNW of Barranco Adentro, Panama"},"geometry":{"type":"Point","coordinates":[-82.7634,9.6512,10]},"id":"us6000s9y5"},
{"type":"Feature","properties":{"mag":4.8,"place":"2 km NW of La Esperanza, Panama","time":1771965508956,"updated":1778606897040,"tz":null,"url":"https://earthquake.usgs.gov/earthquakes/eventpage/us7000s021","detail":"https://earthquake.usgs.gov/fdsnws/event/1/query?eventid=us7000s021&format=geojson","felt":18,"cdi":3.8,"mmi":null,"alert":null,"status":"reviewed","tsunami":0,"sig":361,"net":"us","code":"7000s021","ids":",us7000s021,","sources":",us,","types":",dyfi,moment-tensor,origin,phase-data,","nst":103,"dmin":0.941,"rms":0.97,"gap":144,"magType":"mww","type":"earthquake","title":"M 4.8 - 2 km NW of La Esperanza, Panama"},"geometry":{"type":"Point","coordinates":[-82.8039,8.4231,10]},"id":"us7000s021"},
{"type":"Feature","properties":{"mag":5,"place":"33 km N of Kusapín, Panama","time":1772298715916,"updated":1778882553040,"tz":null,"url":"https://earthquake.usgs.gov/earthquakes/eventpage/us7000s132","detail":"https://earthquake.usgs.gov/fdsnws/event/1/query?eventid=us7000s132&format=geojson","felt":34,"cdi":4.8,"mmi":null,"alert":null,"status":"reviewed","tsunami":0,"sig":401,"net":"us","code":"7000s132","ids":",us7000s132,usauto7000s132,","sources":",us,usauto,","types":",dyfi,internal-moment-tensor,moment-tensor,origin,phase-data,","nst":139,"dmin":1.411,"rms":0.6,"gap":49,"magType":"mww","type":"earthquake","title":"M 5.0 - 33 km N of Kusapín, Panama"},"geometry":{"type":"Point","coordinates":[-81.832,9.4775,10]},"id":"us7000s132"},
{"type":"Feature","properties":{"mag":5.2,"place":"115 km SSE of Burica, Panama","time":1772688113362,"updated":1779487115040,"tz":null,"url":"https://earthquake.usgs.gov/earthquakes/eventpage/us7000s268","detail":"https://earthquake.usgs.gov/fdsnws/event/1/query?eventid=us7000s268&format=geojson","felt":null,"cdi":null,"mmi":null,"alert":null,"status":"reviewed","tsunami":0,"sig":416,"net":"us","code":"7000s268","ids":",usauto7000s268,us7000s268,","sources":",usauto,us,","types":",internal-moment-tensor,moment-tensor,origin,phase-data,","nst":307,"dmin":2.295,"rms":0.86,"gap":133,"magType":"mww","type":"earthquake","title":"M 5.2 - 115 km SSE of Burica, Panama"},"geometry":{"type":"Point","coordinates":[-82.3532,7.13,10]},"id":"us7000s268"},
{"type":"Feature","properties":{"mag":4.5,"place":"13 km WNW of Tamarindo, Costa Rica","time":1772881823997,"updated":1779487118040,"tz":null,"url":"https://earthquake.usgs.gov/earthquakes/eventpage/us7000s2rp","detail":"https://earthquake.usgs.gov/fdsnws/event/1/query?eventid=us7000s2rp&format=geojson","felt":null,"cdi":null,"mmi":null,"alert":null,"status":"reviewed","tsunami":0,"sig":312,"net":"us","code":"7000s2rp","ids":",us7000s2rp,","sources":",us,","types":",origin,phase-data,","nst":30,"dmin":0.828,"rms":0.73,"gap":208,"magType":"mb","type":"earthquake","title":"M 4.5 - 13 km WNW of Tamarindo, Costa Rica"},"geometry":{"type":"Point","coordinates":[-85.966,10.3245,10]},"id":"us7000s2rp"},
{"type":"Feature","properties":{"mag":4.8,"place":"4 km SSW of Moyogalpa, Nicaragua","time":1773247037139,"updated":1779487126040,"tz":null,"url":"https://earthquake.usgs.gov/earthquakes/eventpage/us7000s3n2","detail":"https://earthquake.usgs.gov/fdsnws/event/1/query?eventid=us7000s3n2&format=geojson","felt":2,"cdi":2.7,"mmi":null,"alert":null,"status":"reviewed","tsunami":0,"sig":355,"net":"us","code":"7000s3n2","ids":",us7000s3n2,","sources":",us,","types":",dyfi,origin,phase-data,","nst":78,"dmin":0.735,"rms":0.9,"gap":120,"magType":"mww","type":"earthquake","title":"M 4.8 - 4 km SSW of Moyogalpa, Nicaragua"},"geometry":{"type":"Point","coordinates":[-85.7055,11.5036,200.394]},"id":"us7000s3n2"},
{"type":"Feature","properties":{"mag":4.7,"place":"20 km S of Golfito, Costa Rica","time":1773779126135,"updated":1779823023040,"tz":null,"url":"https://earthquake.usgs.gov/earthquakes/eventpage/us6000sh19","detail":"https://earthquake.usgs.gov/fdsnws/event/1/query?eventid=us6000sh19&format=geojson","felt":6,"cdi":3.8,"mmi":null,"alert":null,"status":"reviewed","tsunami":0,"sig":342,"net":"us","code":"6000sh19","ids":",us6000sh19,","sources":",us,","types":",dyfi,origin,phase-data,","nst":31,"dmin":0.85,"rms":0.56,"gap":200,"magType":"mb","type":"earthquake","title":"M 4.7 - 20 km S of Golfito, Costa Rica"},"geometry":{"type":"Point","coordinates":[-83.103,8.4189,10]},"id":"us6000sh19"},
{"type":"Feature","properties":{"mag":5.4,"place":"south of Panama","time":1773920206165,"updated":1780598271040,"tz":null,"url":"https://earthquake.usgs.gov/earthquakes/eventpage/us6000shdm","detail":"https://earthquake.usgs.gov/fdsnws/event/1/query?eventid=us6000shdm&format=geojson","felt":null,"cdi":null,"mmi":2.646,"alert":"green","status":"reviewed","tsunami":0,"sig":449,"net":"us","code":"6000shdm","ids":",usauto6000shdm,us6000shdm,","sources":",usauto,us,","types":",internal-moment-tensor,losspager,moment-tensor,origin,phase-data,shakemap,","nst":82,"dmin":4.1,"rms":1.14,"gap":67,"magType":"mww","type":"earthquake","title":"M 5.4 - south of Panama"},"geometry":{"type":"Point","coordinates":[-82.6186,5.1837,10]},"id":"us6000shdm"},
{"type":"Feature","properties":{"mag":4.2,"place":"14 km E of Bagadó, Colombia","time":1774192511215,"updated":1780598291040,"tz":null,"url":"https://earthquake.usgs.gov/earthquakes/eventpage/us7000s9eh","detail":"https://earthquake.usgs.gov/fdsnws/event/1/query?eventid=us7000s9eh&format=geojson","felt":null,"cdi":null,"mmi":null,"alert":null,"status":"reviewed","tsunami":0,"sig":271,"net":"us","code":"7000s9eh","ids":",us7000s9eh,","sources":",us,","types":",origin,phase-data,","nst":14,"dmin":2.038,"rms":0.33,"gap":112,"magType":"mb","type":"earthquake","title":"M 4.2 - 14 km E of Bagadó, Colombia"},"geometry":{"type":"Point","coordinates":[-76.285,5.4203,104.871]},"id":"us7000s9eh"},
{"type":"Feature","properties":{"mag":4.4,"place":"15 km W of Limones, Panama","time":1775149885196,"updated":1781975109040,"tz":null,"url":"https://earthquake.usgs.gov/earthquakes/eventpage/us6000sm5q","detail":"https://earthquake.usgs.gov/fdsnws/event/1/query?eventid=us6000sm5q&format=geojson","felt":null,"cdi":null,"mmi":null,"alert":null,"status":"reviewed","tsunami":0,"sig":298,"net":"us","code":"6000sm5q","ids":",us6000sm5q,","sources":",us,","types":",origin,phase-data,","nst":30,"dmin":1.183,"rms":0.52,"gap":141,"magType":"mb","type":"earthquake","title":"M 4.4 - 15 km W of Limones, Panama"},"geometry":{"type":"Point","coordinates":[-83.0022,8.0971,10]},"id":"us6000sm5q"},
{"type":"Feature","properties":{"mag":4.8,"place":"144 km WSW of Bahía Solano, Colombia","time":1775994618304,"updated":1782318873040,"tz":null,"url":"https://earthquake.usgs.gov/earthquakes/eventpage/us6000sph9","detail":"https://earthquake.usgs.gov/fdsnws/event/1/query?eventid=us6000sph9&format=geojson","felt":null,"cdi":null,"mmi":null,"alert":null,"status":"reviewed","tsunami":0,"sig":354,"net":"us","code":"6000sph9","ids":",us6000sph9,","sources":",us,","types":",origin,phase-data,","nst":65,"dmin":3.406,"rms":0.9,"gap":116,"magType":"mww","type":"earthquake","title":"M 4.8 - 144 km WSW of Bahía Solano, Colombia"},"geometry":{"type":"Point","coordinates":[-78.6809,5.9384,10]},"id":"us6000sph9"},
{"type":"Feature","properties":{"mag":3.8,"place":"13 km SW of San Marcos, Costa Rica","time":1776268501527,"updated":1782318879040,"tz":null,"url":"https://earthquake.usgs.gov/earthquakes/eventpage/us6000sq97","detail":"https://earthquake.usgs.gov/fdsnws/event/1/query?eventid=us6000sq97&format=geojson","felt":3,"cdi":3.1,"mmi":null,"alert":null,"status":"reviewed","tsunami":0,"sig":223,"net":"us","code":"6000sq97","ids":",us6000sq97,","sources":",us,","types":",dyfi,origin,phase-data,","nst":6,"dmin":0.199,"rms":0.2,"gap":201,"magType":"ml","type":"earthquake","title":"M 3.8 - 13 km SW of San Marcos, Costa Rica"},"geometry":{"type":"Point","coordinates":[-84.0885,9.5588,49.345]},"id":"us6000sq97"},
{"type":"Feature","properties":{"mag":4,"place":"19 km WNW of Limones, Panama","time":1776381449789,"updated":1783042677040,"tz":null,"url":"https://earthquake.usgs.gov/earthquakes/eventpage/us6000sqnn","detail":"https://earthquake.usgs.gov/fdsnws/event/1/query?eventid=us6000sqnn&format=geojson","felt":null,"cdi":null,"mmi":null,"alert":null,"status":"reviewed","tsunami":0,"sig":246,"net":"us","code":"6000sqnn","ids":",us6000sqnn,","sources":",us,","types":",origin,phase-data,","nst":14,"dmin":1.098,"rms":0.97,"gap":155,"magType":"mb","type":"earthquake","title":"M 4.0 - 19 km WNW of Limones, Panama"},"geometry":{"type":"Point","coordinates":[-83.0293,8.1782,8.202]},"id":"us6000sqnn"},
{"type":"Feature","properties":{"mag":4.4,"place":"137 km NE of Achutupo, Panama","time":1776508954393,"updated":1783042744040,"tz":null,"url":"https://earthquake.usgs.gov/earthquakes/eventpage/us7000sgh1","detail":"https://earthquake.usgs.gov/fdsnws/event/1/query?eventid=us7000sgh1&format=geojson","felt":null,"cdi":null,"mmi":null,"alert":null,"status":"reviewed","tsunami":0,"sig":298,"net":"us","code":"7000sgh1","ids":",us7000sgh1,","sources":",us,","types":",origin,phase-data,","nst":41,"dmin":2.813,"rms":0.61,"gap":73,"magType":"mb","type":"earthquake","title":"M 4.4 - 137 km NE of Achutupo, Panama"},"geometry":{"type":"Point","coordinates":[-77.1509,10.1195,10]},"id":"us7000sgh1"},
{"type":"Feature","properties":{"mag":4.4,"place":"33 km W of Burica, Panama","time":1776588944310,"updated":1783042696040,"tz":null,"url":"https://earthquake.usgs.gov/earthquakes/eventpage/us6000sra9","detail":"https://earthquake.usgs.gov/fdsnws/event/1/query?eventid=us6000sra9&format=geojson","felt":null,"cdi":null,"mmi":null,"alert":null,"status":"reviewed","tsunami":0,"sig":298,"net":"us","code":"6000sra9","ids":",us6000sra9,","sources":",us,","types":",origin,phase-data,","nst":20,"dmin":1.191,"rms":0.68,"gap":143,"magType":"mb","type":"earthquake","title":"M 4.4 - 33 km W of Burica, Panama"},"geometry":{"type":"Point","coordinates":[-83.1698,8.0655,10]},"id":"us6000sra9"},
{"type":"Feature","properties":{"mag":5,"place":"2 km NNE of Palmichal, Costa Rica","time":1777348187959,"updated":1783799946040,"tz":null,"url":"https://earthquake.usgs.gov/earthquakes/eventpage/us7000sglc","detail":"https://earthquake.usgs.gov/fdsnws/event/1/query?eventid=us7000sglc&format=geojson","felt":83,"cdi":4.3,"mmi":null,"alert":null,"status":"reviewed","tsunami":0,"sig":420,"net":"us","code":"7000sglc","ids":",us7000sglc,","sources":",us,","types":",dyfi,origin,phase-data,","nst":86,"dmin":0.162,"rms":0.76,"gap":84,"magType":"mww","type":"earthquake","title":"M 5.0 - 2 km NNE of Palmichal, Costa Rica"},"geometry":{"type":"Point","coordinates":[-84.1985,9.8635,70.8]},"id":"us7000sglc"},
{"type":"Feature","properties":{"mag":4.5,"place":"23 km SE of Bagadó, Colombia","time":1777729043591,"updated":1784129146040,"tz":null,"url":"https://earthquake.usgs.gov/earthquakes/eventpage/us6000swxr","detail":"https://earthquake.usgs.gov/fdsnws/event/1/query?eventid=us6000swxr&format=geojson","felt":null,"cdi":null,"mmi":null,"alert":null,"status":"reviewed","tsunami":0,"sig":312,"net":"us","code":"6000swxr","ids":",us6000swxr,","sources":",us,","types":",origin,phase-data,","nst":50,"dmin":1.998,"rms":0.83,"gap":104,"magType":"mb","type":"earthquake","title":"M 4.5 - 23 km SE of Bagadó, Colombia"},"geometry":{"type":"Point","coordinates":[-76.2871,5.2447,104.42]},"id":"us6000swxr"},
{"type":"Feature","properties":{"mag":4.1,"place":"25 km S of Parrita, Costa Rica","time":1778014483391,"updated":1784129155040,"tz":null,"url":"https://earthquake.usgs.gov/earthquakes/eventpage/us6000svip","detail":"https://earthquake.usgs.gov/fdsnws/event/1/query?eventid=us6000svip&format=geojson","felt":3,"cdi":3.4,"mmi":null,"alert":null,"status":"reviewed","tsunami":0,"sig":260,"net":"us","code":"6000svip","ids":",us6000svip,","sources":",us,","types":",dyfi,origin,phase-data,","nst":12,"dmin":0.74,"rms":0.97,"gap":154,"magType":"mb","type":"earthquake","title":"M 4.1 - 25 km S of Parrita, Costa Rica"},"geometry":{"type":"Point","coordinates":[-84.3477,9.2957,10]},"id":"us6000svip"},
{"type":"Feature","properties":{"mag":4.8,"place":"166 km SSE of Burica, Panama","time":1778211570640,"updated":1784398996040,"tz":null,"url":"https://earthquake.usgs.gov/earthquakes/eventpage/us6000sw44","detail":"https://earthquake.usgs.gov/fdsnws/event/1/query?eventid=us6000sw44&format=geojson","felt":null,"cdi":null,"mmi":null,"alert":null,"status":"reviewed","tsunami":0,"sig":354,"net":"us","code":"6000sw44","ids":",us6000sw44,","sources":",us,","types":",moment-tensor,origin,phase-data,","nst":65,"dmin":2.767,"rms":0.56,"gap":157,"magType":"mww","type":"earthquake","title":"M 4.8 - 166 km SSE of Burica, Panama"},"geometry":{"type":"Point","coordinates":[-82.3611,6.6202,10]},"id":"us6000sw44"},
{"type":"Feature","properties":{"mag":4.5,"place":"4 km SSW of Cerro Punta, Panama","time":1778358370588,"updated":1784398998040,"tz":null,"url":"https://earthquake.usgs.gov/earthquakes/eventpage/us6000swhx","detail":"https://earthquake.usgs.gov/fdsnws/event/1/query?eventid=us6000swhx&format=geojson","felt":null,"cdi":null,"mmi":null,"alert":null,"status":"reviewed","tsunami":0,"sig":312,"net":"us","code":"6000swhx","ids":",us6000swhx,","sources":",us,","types":",origin,phase-data,","nst":31,"dmin":0.782,"rms":0.56,"gap":145,"magType":"mb","type":"earthquake","title":"M 4.5 - 4 km SSW of Cerro Punta, Panama"},"geometry":{"type":"Point","coordinates":[-82.5942,8.8156,10]},"id":"us6000swhx"},
{"type":"Feature","properties":{"mag":5,"place":"16 km ENE of Jacó, Costa Rica","time":1778689350423,"updated":1787558667028,"tz":null,"url":"https://earthquake.usgs.gov/earthquakes/eventpage/us6000sxh5","detail":"https://earthquake.usgs.gov/fdsnws/event/1/query?eventid=us6000sxh5&format=geojson","felt":27,"cdi":5.3,"mmi":null,"alert":null,"status":"reviewed","tsunami":0,"sig":399,"net":"us","code":"6000sxh5","ids":",us6000sxh5,","sources":",us,","types":",dyfi,origin,phase-data,","nst":74,"dmin":0.497,"rms":0.64,"gap":85,"magType":"mww","type":"earthquake","title":"M 5.0 - 16 km ENE of Jacó, Costa Rica"},"geometry":{"type":"Point","coordinates":[-84.4935,9.6751,10]},"id":"us6000sxh5"},
{"type":"Feature","properties":{"mag":4.4,"place":"4 km SE of Jacó, Costa Rica","time":1778729817602,"updated":1785017567040,"tz":null,"url":"https://earthquake.usgs.gov/earthquakes/eventpage/us6000sxne","detail":"https://earthquake.usgs.gov/fdsnws/event/1/query?eventid=us6000sxne&format=geojson","felt":4,"cdi":5,"mmi":null,"alert":null,"status":"reviewed","tsunami":0,"sig":300,"net":"us","code":"6000sxne","ids":",us6000sxne,","sources":",us,","types":",dyfi,origin,phase-data,","nst":39,"dmin":0.631,"rms":0.84,"gap":139,"magType":"mb","type":"earthquake","title":"M 4.4 - 4 km SE of Jacó, Costa Rica"},"geometry":{"type":"Point","coordinates":[-84.5982,9.5901,10]},"id":"us6000sxne"},
{"type":"Feature","properties":{"mag":3.2,"place":"10 km SSW of Jacó, Costa Rica","time":1778733891705,"updated":1785017567040,"tz":null,"url":"https://earthquake.usgs.gov/earthquakes/eventpage/us6000sxlv","detail":"https://earthquake.usgs.gov/fdsnws/event/1/query?eventid=us6000sxlv&format=geojson","felt":3,"cdi":2.9,"mmi":null,"alert":null,"status":"reviewed","tsunami":0,"sig":158,"net":"us","code":"6000sxlv","ids":",us6000sxlv,","sources":",us,","types":",dyfi,origin,phase-data,","nst":5,"dmin":0.715,"rms":0.23,"gap":233,"magType":"ml","type":"earthquake","title":"M 3.2 - 10 km SSW of Jacó, Costa Rica"},"geometry":{"type":"Point","coordinates":[-84.6545,9.5253,10]},"id":"us6000sxlv"},
{"type":"Feature","properties":{"mag":3.2,"place":"4 km SE of Jacó, Costa Rica","time":1778928476280,"updated":1785017569040,"tz":null,"url":"https://earthquake.usgs.gov/earthquakes/eventpage/us6000sy6z","detail":"https://earthquake.usgs.gov/fdsnws/event/1/query?eventid=us6000sy6z&format=geojson","felt":3,"cdi":2.7,"mmi":null,"alert":null,"status":"reviewed","tsunami":0,"sig":158,"net":"us","code":"6000sy6z","ids":",us6000sy6z,","sources":",us,","types":",dyfi,origin,phase-data,","nst":7,"dmin":0.613,"rms":0.53,"gap":213,"magType":"ml","type":"earthquake","title":"M 3.2 - 4 km SE of Jacó, Costa Rica"},"geometry":{"type":"Point","coordinates":[-84.6055,9.5822,10]},"id":"us6000sy6z"},
{"type":"Feature","properties":{"mag":4.5,"place":"24 km NNE of San Vito, Costa Rica","time":1779157413602,"updated":1785017578040,"tz":null,"url":"https://earthquake.usgs.gov/earthquakes/eventpage/us6000t076","detail":"https://earthquake.usgs.gov/fdsnws/event/1/query?eventid=us6000t076&format=geojson","felt":null,"cdi":null,"mmi":null,"alert":null,"status":"reviewed","tsunami":0,"sig":312,"net":"us","code":"6000t076","ids":",us6000t076,","sources":",us,","types":",origin,phase-data,","nst":47,"dmin":0.399,"rms":0.66,"gap":134,"magType":"mb","type":"earthquake","title":"M 4.5 - 24 km NNE of San Vito, Costa Rica"},"geometry":{"type":"Point","coordinates":[-82.9156,9.0311,10]},"id":"us6000t076"},
{"type":"Feature","properties":{"mag":4.5,"place":"27 km S of Puerto Cortés, Costa Rica","time":1779441599591,"updated":1785945528040,"tz":null,"url":"https://earthquake.usgs.gov/earthquakes/eventpage/us6000szg7","detail":"https://earthquake.usgs.gov/fdsnws/event/1/query?eventid=us6000szg7&format=geojson","felt":1,"cdi":3.1,"mmi":null,"alert":null,"status":"reviewed","tsunami":0,"sig":312,"net":"us","code":"6000szg7","ids":",us6000szg7,","sources":",us,","types":",dyfi,origin,phase-data,","nst":67,"dmin":0.618,"rms":0.5,"gap":153,"magType":"mb","type":"earthquake","title":"M 4.5 - 27 km S of Puerto Cortés, Costa Rica"},"geometry":{"type":"Point","coordinates":[-83.54,8.7137,15.126]},"id":"us6000szg7"},
{"type":"Feature","properties":{"mag":4.3,"place":"12 km N of Belén, Nicaragua","time":1780069153361,"updated":1786455248040,"tz":null,"url":"https://earthquake.usgs.gov/earthquakes/eventpage/us7000sql0","detail":"https://earthquake.usgs.gov/fdsnws/event/1/query?eventid=us7000sql0&format=geojson","felt":null,"cdi":null,"mmi":null,"alert":null,"status":"reviewed","tsunami":0,"sig":284,"net":"us","code":"7000sql0","ids":",us7000sql0,","sources":",us,","types":",origin,phase-data,","nst":31,"dmin":0.94,"rms":1.03,"gap":163,"magType":"mb","type":"earthquake","title":"M 4.3 - 12 km N of Belén, Nicaragua"},"geometry":{"type":"Point","coordinates":[-85.9086,11.6168,10]},"id":"us7000sql0"},
{"type":"Feature","properties":{"mag":4.8,"place":"11 km NNW of El Cortezo, Panama","time":1780447301589,"updated":1786455246040,"tz":null,"url":"https://earthquake.usgs.gov/earthquakes/eventpage/us7000sq6f","detail":"https://earthquake.usgs.gov/fdsnws/event/1/query?eventid=us7000sq6f&format=geojson","felt":2,"cdi":3.8,"mmi":null,"alert":null,"status":"reviewed","tsunami":0,"sig":355,"net":"us","code":"7000sq6f","ids":",us7000sq6f,","sources":",us,","types":",dyfi,origin,phase-data,","nst":109,"dmin":1.83,"rms":0.61,"gap":123,"magType":"mww","type":"earthquake","title":"M 4.8 - 11 km NNW of El Cortezo, Panama"},"geometry":{"type":"Point","coordinates":[-80.677,7.5249,10]},"id":"us7000sq6f"},
{"type":"Feature","properties":{"mag":4.7,"place":"66 km SSW of Puerto Cortés, Costa Rica","time":1780538112872,"updated":1786814819040,"tz":null,"url":"https://earthquake.usgs.gov/earthquakes/eventpage/us7000sqgj","detail":"https://earthquake.usgs.gov/fdsnws/event/1/query?eventid=us7000sqgj&format=geojson","felt":6,"cdi":2.7,"mmi":null,"alert":null,"status":"reviewed","tsunami":0,"sig":341,"net":"us","code":"7000sqgj","ids":",us7000sqgj,","sources":",us,","types":",dyfi,origin,phase-data,","nst":90,"dmin":0.982,"rms":0.8,"gap":146,"magType":"mb","type":"earthquake","title":"M 4.7 - 66 km SSW of Puerto Cortés, Costa Rica"},"geometry":{"type":"Point","coordinates":[-83.7153,8.3919,10]},"id":"us7000sqgj"},
{"type":"Feature","properties":{"mag":4.1,"place":"9 km W of Cárdenas, Nicaragua","time":1781021190737,"updated":1786814835040,"tz":null,"url":"https://earthquake.usgs.gov/earthquakes/eventpage/us7000stz6","detail":"https://earthquake.usgs.gov/fdsnws/event/1/query?eventid=us7000stz6&format=geojson","felt":null,"cdi":null,"mmi":null,"alert":null,"status":"reviewed","tsunami":0,"sig":259,"net":"us","code":"7000stz6","ids":",us7000stz6,","sources":",us,","types":",origin,phase-data,","nst":29,"dmin":0.422,"rms":0.77,"gap":148,"magType":"mb","type":"earthquake","title":"M 4.1 - 9 km W of Cárdenas, Nicaragua"},"geometry":{"type":"Point","coordinates":[-85.5964,11.1965,164.08]},"id":"us7000stz6"},
{"type":"Feature","properties":{"mag":4.9,"place":"8 km NW of Sardinal, Costa Rica","time":1781060495618,"updated":1786814830040,"tz":null,"url":"https://earthquake.usgs.gov/earthquakes/eventpage/us7000sry7","detail":"https://earthquake.usgs.gov/fdsnws/event/1/query?eventid=us7000sry7&format=geojson","felt":95,"cdi":4.2,"mmi":null,"alert":null,"status":"reviewed","tsunami":0,"sig":409,"net":"us","code":"7000sry7","ids":",us7000sry7,","sources":",us,","types":",dyfi,moment-tensor,origin,phase-data,","nst":73,"dmin":0.47,"rms":0.91,"gap":148,"magType":"mww","type":"earthquake","title":"M 4.9 - 8 km NW of Sardinal, Costa Rica"},"geometry":{"type":"Point","coordinates":[-85.7014,10.5726,67.747]},"id":"us7000sry7"},
{"type":"Feature","properties":{"mag":4.4,"place":"25 km N of San José del Palmar, Colombia","time":1782635965720,"updated":1789515659040,"tz":null,"url":"https://earthquake.usgs.gov/earthquakes/eventpage/us6000t8sr","detail":"https://earthquake.usgs.gov/fdsnws/event/1/query?eventid=us6000t8sr&format=geojson","felt":2,"cdi":2,"mmi":null,"alert":null,"status":"reviewed","tsunami":0,"sig":298,"net":"us","code":"6000t8sr","ids":",us6000t8sr,","sources":",us,","types":",dyfi,origin,phase-data,","nst":44,"dmin":4.63,"rms":0.77,"gap":115,"magType":"mb","type":"earthquake","title":"M 4.4 - 25 km N of San José del Palmar, Colombia"},"geometry":{"type":"Point","coordinates":[-76.2727,5.1217,96.893]},"id":"us6000t8sr"},
{"type":"Feature","properties":{"mag":4.4,"place":"21 km NW of Golfito, Costa Rica","time":1782913276690,"updated":1789515696040,"tz":null,"url":"https://earthquake.usgs.gov/earthquakes/eventpage/us6000t9f9","detail":"https://earthquake.usgs.gov/fdsnws/event/1/query?eventid=us6000t9f9&format=geojson","felt":1,"cdi":3.1,"mmi":null,"alert":null,"status":"reviewed","tsunami":0,"sig":298,"net":"us","code":"6000t9f9","ids":",us6000t9f9,","sources":",us,","types":",dyfi,origin,phase-data,","nst":27,"dmin":0.523,"rms":0.68,"gap":218,"magType":"mb","type":"earthquake","title":"M 4.4 - 21 km NW of Golfito, Costa Rica"},"geometry":{"type":"Point","coordinates":[-83.2596,8.7365,27.196]},"id":"us6000t9f9"},
{"type":"Feature","properties":{"mag":4.1,"place":"4 km SSE of San Rafael Abajo, Costa Rica","time":1783052286331,"updated":1789854625040,"tz":null,"url":"https://earthquake.usgs.gov/earthquakes/eventpage/us6000t9sq","detail":"https://earthquake.usgs.gov/fdsnws/event/1/query?eventid=us6000t9sq&format=geojson","felt":5,"cdi":3.4,"mmi":null,"alert":null,"status":"reviewed","tsunami":0,"sig":260,"net":"us","code":"6000t9sq","ids":",us6000t9sq,","sources":",us,","types":",dyfi,origin,phase-data,","nst":19,"dmin":0.271,"rms":0.83,"gap":164,"magType":"mb","type":"earthquake","title":"M 4.1 - 4 km SSE of San Rafael Abajo, Costa Rica"},"geometry":{"type":"Point","coordinates":[-84.2802,9.7869,61.605]},"id":"us6000t9sq"},
{"type":"Feature","properties":{"mag":5.2,"place":"18 km NW of Jacó, Costa Rica","time":1783447890741,"updated":1789854630040,"tz":null,"url":"https://earthquake.usgs.gov/earthquakes/eventpage/us6000tarc","detail":"https://earthquake.usgs.gov/fdsnws/event/1/query?eventid=us6000tarc&format=geojson","felt":31,"cdi":4.3,"mmi":null,"alert":null,"status":"reviewed","tsunami":0,"sig":429,"net":"us","code":"6000tarc","ids":",us6000tarc,usauto6000tarc,","sources":",us,usauto,","types":",dyfi,internal-moment-tensor,moment-tensor,origin,phase-data,","nst":110,"dmin":0.576,"rms":0.63,"gap":63,"magType":"mww","type":"earthquake","title":"M 5.2 - 18 km NW of Jacó, Costa Rica"},"geometry":{"type":"Point","coordinates":[-84.7291,9.7551,35]},"id":"us6000tarc"},
{"type":"Feature","properties":{"mag":4.5,"place":"3 km ENE of Santa Cruz, Panama","time":1784198010188,"updated":1788178817040,"tz":null,"url":"https://earthquake.usgs.gov/earthquakes/eventpage/us7000t0xy","detail":"https://earthquake.usgs.gov/fdsnws/event/1/query?eventid=us7000t0xy&format=geojson","felt":null,"cdi":null,"mmi":null,"alert":null,"status":"reviewed","tsunami":0,"sig":312,"net":"us","code":"7000t0xy","ids":",us7000t0xy,","sources":",us,","types":",origin,phase-data,","nst":36,"dmin":0.79,"rms":0.9,"gap":151,"magType":"mb","type":"earthquake","title":"M 4.5 - 3 km ENE of Santa Cruz, Panama"},"geometry":{"type":"Point","coordinates":[-82.7325,8.6521,10]},"id":"us7000t0xy"},
{"type":"Feature","properties":{"mag":4.3,"place":"204 km SW of Río Grande, Panama","time":1785118841162,"updated":1786676145040,"tz":null,"url":"https://earthquake.usgs.gov/earthquakes/eventpage/us7000t3kq","detail":"https://earthquake.usgs.gov/fdsnws/event/1/query?eventid=us7000t3kq&format=geojson","felt":null,"cdi":null,"mmi":null,"alert":null,"status":"reviewed","tsunami":0,"sig":284,"net":"us","code":"7000t3kq","ids":",us7000t3kq,","sources":",us,","types":",origin,phase-data,","nst":24,"dmin":3.118,"rms":0.89,"gap":150,"magType":"mb","type":"earthquake","title":"M 4.3 - 204 km SW of Río Grande, Panama"},"geometry":{"type":"Point","coordinates":[-82.4279,6.2315,10]},"id":"us7000t3kq"},
{"type":"Feature","properties":{"mag":4.5,"place":"189 km SSE of Burica, Panama","time":1785171006616,"updated":1786310478040,"tz":null,"url":"https://earthquake.usgs.gov/earthquakes/eventpage/us6000tgxl","detail":"https://earthquake.usgs.gov/fdsnws/event/1/query?eventid=us6000tgxl&format=geojson","felt":null,"cdi":null,"mmi":null,"alert":null,"status":"reviewed","tsunami":0,"sig":312,"net":"us","code":"6000tgxl","ids":",us6000tgxl,","sources":",us,","types":",origin,phase-data,","nst":39,"dmin":2.974,"rms":1.25,"gap":155,"magType":"mb","type":"earthquake","title":"M 4.5 - 189 km SSE of Burica, Panama"},"geometry":{"type":"Point","coordinates":[-82.5166,6.3585,10]},"id":"us6000tgxl"},
{"type":"Feature","properties":{"mag":4.3,"place":"5 km S of Orosi, Costa Rica","time":1785550587768,"updated":1788470258040,"tz":null,"url":"https://earthquake.usgs.gov/earthquakes/eventpage/us6000thdg","detail":"https://earthquake.usgs.gov/fdsnws/event/1/query?eventid=us6000thdg&format=geojson","felt":33,"cdi":4.8,"mmi":null,"alert":null,"status":"reviewed","tsunami":0,"sig":300,"net":"us","code":"6000thdg","ids":",us6000thdg,","sources":",us,","types":",dyfi,impact-text,origin,phase-data,","nst":22,"dmin":0.364,"rms":1.16,"gap":168,"magType":"mb","type":"earthquake","title":"M 4.3 - 5 km S of Orosi, Costa Rica"},"geometry":{"type":"Point","coordinates":[-83.8518,9.7421,10]},"id":"us6000thdg"},
{"type":"Feature","properties":{"mag":4.3,"place":"8 km SW of Pitaloza Arriba, Panama","time":1785645003701,"updated":1791326287040,"tz":null,"url":"https://earthquake.usgs.gov/earthquakes/eventpage/us6000thkb","detail":"https://earthquake.usgs.gov/fdsnws/event/1/query?eventid=us6000thkb&format=geojson","felt":null,"cdi":null,"mmi":null,"alert":null,"status":"reviewed","tsunami":0,"sig":284,"net":"us","code":"6000thkb","ids":",us6000thkb,","sources":",us,","types":",origin,phase-data,","nst":28,"dmin":1.792,"rms":1.29,"gap":138,"magType":"mb","type":"earthquake","title":"M 4.3 - 8 km SW of Pitaloza Arriba, Panama"},"geometry":{"type":"Point","coordinates":[-80.7275,7.5961,12.485]},"id":"us6000thkb"},
{"type":"Feature","properties":{"mag":4.6,"place":"7 km NW of Belén, Nicaragua","time":1785686970414,"updated":1787416760040,"tz":null,"url":"https://earthquake.usgs.gov/earthquakes/eventpage/us6000thmh","detail":"https://earthquake.usgs.gov/fdsnws/event/1/query?eventid=us6000thmh&format=geojson","felt":null,"cdi":null,"mmi":null,"alert":null,"status":"reviewed","tsunami":0,"sig":326,"net":"us","code":"6000thmh","ids":",us6000thmh,","sources":",us,","types":",origin,phase-data,","nst":71,"dmin":0.908,"rms":1.06,"gap":49,"magType":"mb","type":"earthquake","title":"M 4.6 - 7 km NW of Belén, Nicaragua"},"geometry":{"type":"Point","coordinates":[-85.9413,11.549,135.313]},"id":"us6000thmh"},
{"type":"Feature","properties":{"mag":4.4,"place":"24 km NNW of Riosucio, Colombia","time":1785690755137,"updated":1786634429040,"tz":null,"url":"https://earthquake.usgs.gov/earthquakes/eventpage/us6000thmv","detail":"https://earthquake.usgs.gov/fdsnws/event/1/query?eventid=us6000thmv&format=geojson","felt":null,"cdi":null,"mmi":null,"alert":null,"status":"reviewed","tsunami":0,"sig":298,"net":"us","code":"6000thmv","ids":",us6000thmv,","sources":",us,","types":",origin,phase-data,","nst":35,"dmin":1.45,"rms":0.44,"gap":95,"magType":"mb","type":"earthquake","title":"M 4.4 - 24 km NNW of Riosucio, Colombia"},"geometry":{"type":"Point","coordinates":[-77.1911,7.6498,34.424]},"id":"us6000thmv"},
{"type":"Feature","properties":{"mag":5.1,"place":"240 km S of Burica, Panama","time":1785903561840,"updated":1787362190357,"tz":null,"url":"https://earthquake.usgs.gov/earthquakes/eventpage/us6000ti6z","detail":"https://earthquake.usgs.gov/fdsnws/event/1/query?eventid=us6000ti6z&format=geojson","felt":1,"cdi":2,"mmi":null,"alert":null,"status":"reviewed","tsunami":0,"sig":400,"net":"us","code":"6000ti6z","ids":",us6000ti6z,usauto6000ti6z,","sources":",us,usauto,","types":",dyfi,internal-moment-tensor,origin,phase-data,","nst":56,"dmin":3.43,"rms":1.1,"gap":138,"magType":"mww","type":"earthquake","title":"M 5.1 - 240 km S of Burica, Panama"},"geometry":{"type":"Point","coordinates":[-82.5326,5.8844,10]},"id":"us6000ti6z"},
{"type":"Feature","properties":{"mag":4.9,"place":"163 km S of Sámara, Costa Rica","time":1786395298695,"updated":1787253288040,"tz":null,"url":"https://earthquake.usgs.gov/earthquakes/eventpage/us6000tjsr","detail":"https://earthquake.usgs.gov/fdsnws/event/1/query?eventid=us6000tjsr&format=geojson","felt":null,"cdi":null,"mmi":null,"alert":null,"status":"reviewed","tsunami":0,"sig":369,"net":"us","code":"6000tjsr","ids":",us6000tjsr,","sources":",us,","types":",moment-tensor,origin,phase-data,","nst":68,"dmin":1.963,"rms":0.56,"gap":151,"magType":"mwr","type":"earthquake","title":"M 4.9 - 163 km S of Sámara, Costa Rica"},"geometry":{"type":"Point","coordinates":[-85.5543,8.4074,10]},"id":"us6000tjsr"},
{"type":"Feature","properties":{"mag":4.3,"place":"37 km WNW of Nuquí, Colombia","time":1787134036276,"updated":1788973967040,"tz":null,"url":"https://earthquake.usgs.gov/earthquakes/eventpage/us6000tluk","detail":"https://earthquake.usgs.gov/fdsnws/event/1/query?eventid=us6000tluk&format=geojson","felt":null,"cdi":null,"mmi":null,"alert":null,"status":"reviewed","tsunami":0,"sig":284,"net":"us","code":"6000tluk","ids":",us6000tluk,","sources":",us,","types":",origin,phase-data,","nst":56,"dmin":2.056,"rms":0.67,"gap":127,"magType":"mb","type":"earthquake","title":"M 4.3 - 37 km WNW of Nuquí, Colombia"},"geometry":{"type":"Point","coordinates":[-77.5719,5.8735,10]},"id":"us6000tluk"},
{"type":"Feature","properties":{"mag":4.9,"place":"19 km NNE of San Rafael, Costa Rica","time":1787557036291,"updated":1790606903040,"tz":null,"url":"https://earthquake.usgs.gov/earthquakes/eventpage/us6000tn2j","detail":"https://earthquake.usgs.gov/fdsnws/event/1/query?eventid=us6000tn2j&format=geojson","felt":91,"cdi":5.7,"mmi":null,"alert":null,"status":"reviewed","tsunami":0,"sig":421,"net":"us","code":"6000tn2j","ids":",us6000tn2j,","sources":",us,","types":",dyfi,impact-text,origin,phase-data,","nst":133,"dmin":0.197,"rms":0.5,"gap":63,"magType":"mb","type":"earthquake","title":"M 4.9 - 19 km NNE of San Rafael, Costa Rica"},"geometry":{"type":"Point","coordinates":[-83.9998,10.1662,10]},"id":"us6000tn2j"},
{"type":"Feature","properties":{"mag":4.2,"place":"18 km SW of Guápiles, Costa Rica","time":1787557179051,"updated":1789674423050,"tz":null,"url":"https://earthquake.usgs.gov/earthquakes/eventpage/us7000tcmy","detail":"https://earthquake.usgs.gov/fdsnws/event/1/query?eventid=us7000tcmy&format=geojson","felt":2,"cdi":3.8,"mmi":null,"alert":null,"status":"reviewed","tsunami":0,"sig":272,"net":"us","code":"7000tcmy","ids":",us7000tcmy,","sources":",us,","types":",dyfi,origin,phase-data,","nst":27,"dmin":0.22,"rms":0.7,"gap":54,"magType":"mb","type":"earthquake","title":"M 4.2 - 18 km SW of Guápiles, Costa Rica"},"geometry":{"type":"Point","coordinates":[-83.9122,10.1032,10]},"id":"us7000tcmy"},
{"type":"Feature","properties":{"mag":4.3,"place":"65 km NNE of Narganá, Panama","time":1787899593516,"updated":1790228201649,"tz":null,"url":"https://earthquake.usgs.gov/earthquakes/eventpage/us7000tci6","detail":"https://earthquake.usgs.gov/fdsnws/event/1/query?eventid=us7000tci6&format=geojson","felt":1,"cdi":3.1,"mmi":null,"alert":null,"status":"reviewed","tsunami":0,"sig":285,"net":"us","code":"7000tci6","ids":",us7000tci6,","sources":",us,","types":",dyfi,origin,phase-data,","nst":41,"dmin":1.644,"rms":0.69,"gap":56,"magType":"mb","type":"earthquake","title":"M 4.3 - 65 km NNE of Narganá, Panama"},"geometry":{"type":"Point","coordinates":[-78.4009,10.0063,35]},"id":"us7000tci6"},
{"type":"Feature","properties":{"mag":3.6,"place":"4 km WSW of Caldera, Panama","time":1788238245457,"updated":1788294211864,"tz":null,"url":"https://earthquake.usgs.gov/earthquakes/eventpage/us7000tdbz","detail":"https://earthquake.usgs.gov/fdsnws/event/1/query?eventid=us7000tdbz&format=geojson","felt":6,"cdi":4.1,"mmi":null,"alert":null,"status":"reviewed","tsunami":0,"sig":202,"net":"us","code":"7000tdbz","ids":",us7000tdbz,","sources":",us,","types":",dyfi,origin,phase-data,","nst":6,"dmin":1.026,"rms":0.38,"gap":225,"magType":"ml","type":"earthquake","title":"M 3.6 - 4 km WSW of Caldera, Panama"},"geometry":{"type":"Point","coordinates":[-82.4204,8.6353,10]},"id":"us7000tdbz"},
{"type":"Feature","properties":{"mag":4.2,"place":"18 km WSW of Guápiles, Costa Rica","time":1788558067245,"updated":1790029131040,"tz":null,"url":"https://earthquake.usgs.gov/earthquakes/eventpage/us7000tgdp","detail":"https://earthquake.usgs.gov/fdsnws/event/1/query?eventid=us7000tgdp&format=geojson","felt":null,"cdi":null,"mmi":null,"alert":null,"status":"reviewed","tsunami":0,"sig":271,"net":"us","code":"7000tgdp","ids":",us7000tgdp,","sources":",us,","types":",origin,phase-data,","nst":19,"dmin":0.226,"rms":0.63,"gap":63,"magType":"mb","type":"earthquake","title":"M 4.2 - 18 km WSW of Guápiles, Costa Rica"},"geometry":{"type":"Point","coordinates":[-83.9351,10.147,93.926]},"id":"us7000tgdp"},
{"type":"Feature","properties":{"mag":5,"place":"44 km SSE of Quepos, Costa Rica","time":1789028813928,"updated":1789886644942,"tz":null,"url":"https://earthquake.usgs.gov/earthquakes/eventpage/us7000tg98","detail":"https://earthquake.usgs.gov/fdsnws/event/1/query?eventid=us7000tg98&format=geojson","felt":8,"cdi":3.8,"mmi":null,"alert":null,"status":"reviewed","tsunami":0,"sig":388,"net":"us","code":"7000tg98","ids":",us7000tg98,","sources":",us,","types":",dyfi,moment-tensor,origin,phase-data,","nst":69,"dmin":0.788,"rms":1.2,"gap":140,"magType":"mww","type":"earthquake","title":"M 5.0 - 44 km SSE of Quepos, Costa Rica"},"geometry":{"type":"Point","coordinates":[-84.0167,9.057,10]},"id":"us7000tg98"},
{"type":"Feature","properties":{"mag":4.6,"place":"28 km S of Quepos, Costa Rica","time":1789063444276,"updated":1790200310499,"tz":null,"url":"https://earthquake.usgs.gov/earthquakes/eventpage/us7000tget","detail":"https://earthquake.usgs.gov/fdsnws/event/1/query?eventid=us7000tget&format=geojson","felt":1,"cdi":2.2,"mmi":null,"alert":null,"status":"reviewed","tsunami":0,"sig":326,"net":"us","code":"7000tget","ids":",us7000tget,","sources":",us,","types":",dyfi,origin,phase-data,","nst":77,"dmin":0.826,"rms":0.91,"gap":69,"magType":"mb","type":"earthquake","title":"M 4.6 - 28 km S of Quepos, Costa Rica"},"geometry":{"type":"Point","coordinates":[-84.1473,9.1718,35]},"id":"us7000tget"},
{"type":"Feature","properties":{"mag":4.7,"place":"0 km NE of Manaca Civil, Panama","time":1789178390236,"updated":1790895881720,"tz":null,"url":"https://earthquake.usgs.gov/earthquakes/eventpage/us7000tgw1","detail":"https://earthquake.usgs.gov/fdsnws/event/1/query?eventid=us7000tgw1&format=geojson","felt":36,"cdi":4.3,"mmi":null,"alert":null,"status":"reviewed","tsunami":0,"sig":355,"net":"us","code":"7000tgw1","ids":",us7000tgw1,","sources":",us,","types":",dyfi,origin,phase-data,","nst":53,"dmin":1.02,"rms":0.89,"gap":135,"magType":"mb","type":"earthquake","title":"M 4.7 - 0 km NE of Manaca Civil, Panama"},"geometry":{"type":"Point","coordinates":[-82.8155,8.329,10]},"id":"us7000tgw1"},
{"type":"Feature","properties":{"mag":4.8,"place":"47 km WSW of Bahía Solano, Colombia","time":1789542133029,"updated":1789543705040,"tz":null,"url":"https://earthquake.usgs.gov/earthquakes/eventpage/us7000thsp","detail":"https://earthquake.usgs.gov/fdsnws/event/1/query?eventid=us7000thsp&format=geojson","felt":null,"cdi":null,"mmi":null,"alert":null,"status":"reviewed","tsunami":0,"sig":354,"net":"us","code":"7000thsp","ids":",us7000thsp,","sources":",us,","types":",origin,phase-data,","nst":79,"dmin":2.271,"rms":1.14,"gap":105,"magType":"mb","type":"earthquake","title":"M 4.8 - 47 km WSW of Bahía Solano, Colombia"},"geometry":{"type":"Point","coordinates":[-77.8115,6.0969,10]},"id":"us7000thsp"},
{"type":"Feature","properties":{"mag":4.4,"place":"7 km SW of Juradó, Colombia","time":1789721121605,"updated":1790768928040,"tz":null,"url":"https://earthquake.usgs.gov/earthquakes/eventpage/us7000ti8q","detail":"https://earthquake.usgs.gov/fdsnws/event/1/query?eventid=us7000ti8q&format=geojson","felt":null,"cdi":null,"mmi":null,"alert":null,"status":"reviewed","tsunami":0,"sig":298,"net":"us","code":"7000ti8q","ids":",us7000ti8q,","sources":",us,","types":",origin,phase-data,","nst":18,"dmin":2.286,"rms":0.94,"gap":133,"magType":"mb","type":"earthquake","title":"M 4.4 - 7 km SW of Juradó, Colombia"},"geometry":{"type":"Point","coordinates":[-77.7982,7.0509,10]},"id":"us7000ti8q"},
{"type":"Feature","properties":{"mag":3.9,"place":"8 km W of Cañas Gordas, Panama","time":1789769376758,"updated":1790086417165,"tz":null,"url":"https://earthquake.usgs.gov/earthquakes/eventpage/us7000tij9","detail":"https://earthquake.usgs.gov/fdsnws/event/1/query?eventid=us7000tij9&format=geojson","felt":3,"cdi":3.1,"mmi":null,"alert":null,"status":"reviewed","tsunami":0,"sig":235,"net":"us","code":"7000tij9","ids":",us7000tij9,","sources":",us,","types":",dyfi,origin,phase-data,","nst":13,"dmin":0.574,"rms":0.48,"gap":205,"magType":"mb","type":"earthquake","title":"M 3.9 - 8 km W of Cañas Gordas, Panama"},"geometry":{"type":"Point","coordinates":[-82.9935,8.7413,10]},"id":"us7000tij9"},
{"type":"Feature","properties":{"mag":5,"place":"295 km S of Burica, Panama","time":1791122770385,"updated":1791124122040,"tz":null,"url":"https://earthquake.usgs.gov/earthquakes/eventpage/us6000tzj8","detail":"https://earthquake.usgs.gov/fdsnws/event/1/query?eventid=us6000tzj8&format=geojson","felt":null,"cdi":null,"mmi":null,"alert":null,"status":"reviewed","tsunami":0,"sig":385,"net":"us","code":"6000tzj8","ids":",us6000tzj8,","sources":",us,","types":",origin,phase-data,","nst":61,"dmin":3.903,"rms":1.44,"gap":64,"magType":"mww","type":"earthquake","title":"M 5.0 - 295 km S of Burica, Panama"},"geometry":{"type":"Point","coordinates":[-82.7171,5.3695,10]},"id":"us6000tzj8"}],"bbox":[-85.966,5.1217,8.202,-76.2727,11.6168,218.702]}